{"type": "FeatureCollection", "features": [{"type": "Feature", "properties": {"id": 1, "name": "Constituency 1"}, "geometry": {"type": "Polygon", "coordinates": [[[85.8, 21.5], [86.08571428571429, 21.5], [86.08571428571429, 21.771428571428572], [85.8, 21.771428571428572], [85.8, 21.5]]]}}, {"type": "Feature", "properties": {"id": 2, "name": "Constituency 2"}, "geometry": {"type": "Polygon", "coordinates": [[[86.08571428571429, 21.5], [86.37142857142858, 21.5], [86.37142857142858, 21.771428571428572], [86.08571428571429, 21.771428571428572], [86.08571428571429, 21.5]]]}}, {"type": "Feature", "properties": {"id": 3, "name": "Constituency 3"}, "geometry": {"type": "Polygon", "coordinates": [[[86.37142857142857, 21.5], [86.65714285714286, 21.5], [86.65714285714286, 21.771428571428572], [86.37142857142857, 21.771428571428572], [86.37142857142857, 21.5]]]}}, {"type": "Feature", "properties": {"id": 4, "name": "Constituency 4"}, "geometry": {"type": "Polygon", "coordinates": [[[86.65714285714286, 21.5], [86.94285714285715, 21.5], [86.94285714285715, 21.771428571428572], [86.65714285714286, 21.771428571428572], [86.65714285714286, 21.5]]]}}, {"type": "Feature", "properties": {"id": 5, "name": "Constituency 5"}, "geometry": {"type": "Polygon", "coordinates": [[[86.94285714285714, 21.5], [87.22857142857143, 21.5], [87.22857142857143, 21.771428571428572], [86.94285714285714, 21.771428571428572], [86.94285714285714, 21.5]]]}}, {"type": "Feature", "properties": {"id": 6, "name": "Constituency 6"}, "geometry": {"type": "Polygon", "coordinates": [[[87.22857142857143, 21.5], [87.51428571428572, 21.5], [87.51428571428572, 21.771428571428572], [87.22857142857143, 21.771428571428572], [87.22857142857143, 21.5]]]}}, {"type": "Feature", "properties": {"id": 7, "name": "Constituency 7"}, "geometry": {"type": "Polygon", "coordinates": [[[87.5142857142857, 21.5], [87.8, 21.5], [87.8, 21.771428571428572], [87.5142857142857, 21.771428571428572], [87.5142857142857, 21.5]]]}}, {"type": "Feature", "properties": {"id": 8, "name": "Constituency 8"}, "geometry": {"type": "Polygon", "coordinates": [[[87.8, 21.5], [88.08571428571429, 21.5], [88.08571428571429, 21.771428571428572], [87.8, 21.771428571428572], [87.8, 21.5]]]}}, {"type": "Feature", "properties": {"id": 9, "name": "Constituency 9"}, "geometry": {"type": "Polygon", "coordinates": [[[88.08571428571429, 21.5], [88.37142857142858, 21.5], [88.37142857142858, 21.771428571428572], [88.08571428571429, 21.771428571428572], [88.08571428571429, 21.5]]]}}, {"type": "Feature", "properties": {"id": 10, "name": "Constituency 10"}, "geometry": {"type": "Polygon", "coordinates": [[[88.37142857142857, 21.5], [88.65714285714286, 21.5], [88.65714285714286, 21.771428571428572], [88.37142857142857, 21.771428571428572], [88.37142857142857, 21.5]]]}}, {"type": "Feature", "properties": {"id": 11, "name": "Constituency 11"}, "geometry": {"type": "Polygon", "coordinates": [[[88.65714285714286, 21.5], [88.94285714285715, 21.5], [88.94285714285715, 21.771428571428572], [88.65714285714286, 21.771428571428572], [88.65714285714286, 21.5]]]}}, {"type": "Feature", "properties": {"id": 12, "name": "Constituency 12"}, "geometry": {"type": "Polygon", "coordinates": [[[88.94285714285714, 21.5], [89.22857142857143, 21.5], [89.22857142857143, 21.771428571428572], [88.94285714285714, 21.771428571428572], [88.94285714285714, 21.5]]]}}, {"type": "Feature", "properties": {"id": 13, "name": "Constituency 13"}, "geometry": {"type": "Polygon", "coordinates": [[[89.22857142857143, 21.5], [89.51428571428572, 21.5], [89.51428571428572, 21.771428571428572], [89.22857142857143, 21.771428571428572], [89.22857142857143, 21.5]]]}}, {"type": "Feature", "properties": {"id": 14, "name": "Constituency 14"}, "geometry": {"type": "Polygon", "coordinates": [[[89.5142857142857, 21.5], [89.8, 21.5], [89.8, 21.771428571428572], [89.5142857142857, 21.771428571428572], [89.5142857142857, 21.5]]]}}, {"type": "Feature", "properties": {"id": 15, "name": "Constituency 15"}, "geometry": {"type": "Polygon", "coordinates": [[[85.8, 21.771428571428572], [86.08571428571429, 21.771428571428572], [86.08571428571429, 22.042857142857144], [85.8, 22.042857142857144], [85.8, 21.771428571428572]]]}}, {"type": "Feature", "properties": {"id": 16, "name": "Constituency 16"}, "geometry": {"type": "Polygon", "coordinates": [[[86.08571428571429, 21.771428571428572], [86.37142857142858, 21.771428571428572], [86.37142857142858, 22.042857142857144], [86.08571428571429, 22.042857142857144], [86.08571428571429, 21.771428571428572]]]}}, {"type": "Feature", "properties": {"id": 17, "name": "Constituency 17"}, "geometry": {"type": "Polygon", "coordinates": [[[86.37142857142857, 21.771428571428572], [86.65714285714286, 21.771428571428572], [86.65714285714286, 22.042857142857144], [86.37142857142857, 22.042857142857144], [86.37142857142857, 21.771428571428572]]]}}, {"type": "Feature", "properties": {"id": 18, "name": "Constituency 18"}, "geometry": {"type": "Polygon", "coordinates": [[[86.65714285714286, 21.771428571428572], [86.94285714285715, 21.771428571428572], [86.94285714285715, 22.042857142857144], [86.65714285714286, 22.042857142857144], [86.65714285714286, 21.771428571428572]]]}}, {"type": "Feature", "properties": {"id": 19, "name": "Constituency 19"}, "geometry": {"type": "Polygon", "coordinates": [[[86.94285714285714, 21.771428571428572], [87.22857142857143, 21.771428571428572], [87.22857142857143, 22.042857142857144], [86.94285714285714, 22.042857142857144], [86.94285714285714, 21.771428571428572]]]}}, {"type": "Feature", "properties": {"id": 20, "name": "Constituency 20"}, "geometry": {"type": "Polygon", "coordinates": [[[87.22857142857143, 21.771428571428572], [87.51428571428572, 21.771428571428572], [87.51428571428572, 22.042857142857144], [87.22857142857143, 22.042857142857144], [87.22857142857143, 21.771428571428572]]]}}, {"type": "Feature", "properties": {"id": 21, "name": "Constituency 21"}, "geometry": {"type": "Polygon", "coordinates": [[[87.5142857142857, 21.771428571428572], [87.8, 21.771428571428572], [87.8, 22.042857142857144], [87.5142857142857, 22.042857142857144], [87.5142857142857, 21.771428571428572]]]}}, {"type": "Feature", "properties": {"id": 22, "name": "Constituency 22"}, "geometry": {"type": "Polygon", "coordinates": [[[87.8, 21.771428571428572], [88.08571428571429, 21.771428571428572], [88.08571428571429, 22.042857142857144], [87.8, 22.042857142857144], [87.8, 21.771428571428572]]]}}, {"type": "Feature", "properties": {"id": 23, "name": "Constituency 23"}, "geometry": {"type": "Polygon", "coordinates": [[[88.08571428571429, 21.771428571428572], [88.37142857142858, 21.771428571428572], [88.37142857142858, 22.042857142857144], [88.08571428571429, 22.042857142857144], [88.08571428571429, 21.771428571428572]]]}}, {"type": "Feature", "properties": {"id": 24, "name": "Constituency 24"}, "geometry": {"type": "Polygon", "coordinates": [[[88.37142857142857, 21.771428571428572], [88.65714285714286, 21.771428571428572], [88.65714285714286, 22.042857142857144], [88.37142857142857, 22.042857142857144], [88.37142857142857, 21.771428571428572]]]}}, {"type": "Feature", "properties": {"id": 25, "name": "Constituency 25"}, "geometry": {"type": "Polygon", "coordinates": [[[88.65714285714286, 21.771428571428572], [88.94285714285715, 21.771428571428572], [88.94285714285715, 22.042857142857144], [88.65714285714286, 22.042857142857144], [88.65714285714286, 21.771428571428572]]]}}, {"type": "Feature", "properties": {"id": 26, "name": "Constituency 26"}, "geometry": {"type": "Polygon", "coordinates": [[[88.94285714285714, 21.771428571428572], [89.22857142857143, 21.771428571428572], [89.22857142857143, 22.042857142857144], [88.94285714285714, 22.042857142857144], [88.94285714285714, 21.771428571428572]]]}}, {"type": "Feature", "properties": {"id": 27, "name": "Constituency 27"}, "geometry": {"type": "Polygon", "coordinates": [[[89.22857142857143, 21.771428571428572], [89.51428571428572, 21.771428571428572], [89.51428571428572, 22.042857142857144], [89.22857142857143, 22.042857142857144], [89.22857142857143, 21.771428571428572]]]}}, {"type": "Feature", "properties": {"id": 28, "name": "Constituency 28"}, "geometry": {"type": "Polygon", "coordinates": [[[89.5142857142857, 21.771428571428572], [89.8, 21.771428571428572], [89.8, 22.042857142857144], [89.5142857142857, 22.042857142857144], [89.5142857142857, 21.771428571428572]]]}}, {"type": "Feature", "properties": {"id": 29, "name": "Constituency 29"}, "geometry": {"type": "Polygon", "coordinates": [[[85.8, 22.042857142857144], [86.08571428571429, 22.042857142857144], [86.08571428571429, 22.314285714285717], [85.8, 22.314285714285717], [85.8, 22.042857142857144]]]}}, {"type": "Feature", "properties": {"id": 30, "name": "Constituency 30"}, "geometry": {"type": "Polygon", "coordinates": [[[86.08571428571429, 22.042857142857144], [86.37142857142858, 22.042857142857144], [86.37142857142858, 22.314285714285717], [86.08571428571429, 22.314285714285717], [86.08571428571429, 22.042857142857144]]]}}, {"type": "Feature", "properties": {"id": 31, "name": "Constituency 31"}, "geometry": {"type": "Polygon", "coordinates": [[[86.37142857142857, 22.042857142857144], [86.65714285714286, 22.042857142857144], [86.65714285714286, 22.314285714285717], [86.37142857142857, 22.314285714285717], [86.37142857142857, 22.042857142857144]]]}}, {"type": "Feature", "properties": {"id": 32, "name": "Constituency 32"}, "geometry": {"type": "Polygon", "coordinates": [[[86.65714285714286, 22.042857142857144], [86.94285714285715, 22.042857142857144], [86.94285714285715, 22.314285714285717], [86.65714285714286, 22.314285714285717], [86.65714285714286, 22.042857142857144]]]}}, {"type": "Feature", "properties": {"id": 33, "name": "Constituency 33"}, "geometry": {"type": "Polygon", "coordinates": [[[86.94285714285714, 22.042857142857144], [87.22857142857143, 22.042857142857144], [87.22857142857143, 22.314285714285717], [86.94285714285714, 22.314285714285717], [86.94285714285714, 22.042857142857144]]]}}, {"type": "Feature", "properties": {"id": 34, "name": "Constituency 34"}, "geometry": {"type": "Polygon", "coordinates": [[[87.22857142857143, 22.042857142857144], [87.51428571428572, 22.042857142857144], [87.51428571428572, 22.314285714285717], [87.22857142857143, 22.314285714285717], [87.22857142857143, 22.042857142857144]]]}}, {"type": "Feature", "properties": {"id": 35, "name": "Constituency 35"}, "geometry": {"type": "Polygon", "coordinates": [[[87.5142857142857, 22.042857142857144], [87.8, 22.042857142857144], [87.8, 22.314285714285717], [87.5142857142857, 22.314285714285717], [87.5142857142857, 22.042857142857144]]]}}, {"type": "Feature", "properties": {"id": 36, "name": "Constituency 36"}, "geometry": {"type": "Polygon", "coordinates": [[[87.8, 22.042857142857144], [88.08571428571429, 22.042857142857144], [88.08571428571429, 22.314285714285717], [87.8, 22.314285714285717], [87.8, 22.042857142857144]]]}}, {"type": "Feature", "properties": {"id": 37, "name": "Constituency 37"}, "geometry": {"type": "Polygon", "coordinates": [[[88.08571428571429, 22.042857142857144], [88.37142857142858, 22.042857142857144], [88.37142857142858, 22.314285714285717], [88.08571428571429, 22.314285714285717], [88.08571428571429, 22.042857142857144]]]}}, {"type": "Feature", "properties": {"id": 38, "name": "Constituency 38"}, "geometry": {"type": "Polygon", "coordinates": [[[88.37142857142857, 22.042857142857144], [88.65714285714286, 22.042857142857144], [88.65714285714286, 22.314285714285717], [88.37142857142857, 22.314285714285717], [88.37142857142857, 22.042857142857144]]]}}, {"type": "Feature", "properties": {"id": 39, "name": "Constituency 39"}, "geometry": {"type": "Polygon", "coordinates": [[[88.65714285714286, 22.042857142857144], [88.94285714285715, 22.042857142857144], [88.94285714285715, 22.314285714285717], [88.65714285714286, 22.314285714285717], [88.65714285714286, 22.042857142857144]]]}}, {"type": "Feature", "properties": {"id": 40, "name": "Constituency 40"}, "geometry": {"type": "Polygon", "coordinates": [[[88.94285714285714, 22.042857142857144], [89.22857142857143, 22.042857142857144], [89.22857142857143, 22.314285714285717], [88.94285714285714, 22.314285714285717], [88.94285714285714, 22.042857142857144]]]}}, {"type": "Feature", "properties": {"id": 41, "name": "Constituency 41"}, "geometry": {"type": "Polygon", "coordinates": [[[89.22857142857143, 22.042857142857144], [89.51428571428572, 22.042857142857144], [89.51428571428572, 22.314285714285717], [89.22857142857143, 22.314285714285717], [89.22857142857143, 22.042857142857144]]]}}, {"type": "Feature", "properties": {"id": 42, "name": "Constituency 42"}, "geometry": {"type": "Polygon", "coordinates": [[[89.5142857142857, 22.042857142857144], [89.8, 22.042857142857144], [89.8, 22.314285714285717], [89.5142857142857, 22.314285714285717], [89.5142857142857, 22.042857142857144]]]}}, {"type": "Feature", "properties": {"id": 43, "name": "Constituency 43"}, "geometry": {"type": "Polygon", "coordinates": [[[85.8, 22.314285714285713], [86.08571428571429, 22.314285714285713], [86.08571428571429, 22.585714285714285], [85.8, 22.585714285714285], [85.8, 22.314285714285713]]]}}, {"type": "Feature", "properties": {"id": 44, "name": "Constituency 44"}, "geometry": {"type": "Polygon", "coordinates": [[[86.08571428571429, 22.314285714285713], [86.37142857142858, 22.314285714285713], [86.37142857142858, 22.585714285714285], [86.08571428571429, 22.585714285714285], [86.08571428571429, 22.314285714285713]]]}}, {"type": "Feature", "properties": {"id": 45, "name": "Constituency 45"}, "geometry": {"type": "Polygon", "coordinates": [[[86.37142857142857, 22.314285714285713], [86.65714285714286, 22.314285714285713], [86.65714285714286, 22.585714285714285], [86.37142857142857, 22.585714285714285], [86.37142857142857, 22.314285714285713]]]}}, {"type": "Feature", "properties": {"id": 46, "name": "Constituency 46"}, "geometry": {"type": "Polygon", "coordinates": [[[86.65714285714286, 22.314285714285713], [86.94285714285715, 22.314285714285713], [86.94285714285715, 22.585714285714285], [86.65714285714286, 22.585714285714285], [86.65714285714286, 22.314285714285713]]]}}, {"type": "Feature", "properties": {"id": 47, "name": "Constituency 47"}, "geometry": {"type": "Polygon", "coordinates": [[[86.94285714285714, 22.314285714285713], [87.22857142857143, 22.314285714285713], [87.22857142857143, 22.585714285714285], [86.94285714285714, 22.585714285714285], [86.94285714285714, 22.314285714285713]]]}}, {"type": "Feature", "properties": {"id": 48, "name": "Constituency 48"}, "geometry": {"type": "Polygon", "coordinates": [[[87.22857142857143, 22.314285714285713], [87.51428571428572, 22.314285714285713], [87.51428571428572, 22.585714285714285], [87.22857142857143, 22.585714285714285], [87.22857142857143, 22.314285714285713]]]}}, {"type": "Feature", "properties": {"id": 49, "name": "Constituency 49"}, "geometry": {"type": "Polygon", "coordinates": [[[87.5142857142857, 22.314285714285713], [87.8, 22.314285714285713], [87.8, 22.585714285714285], [87.5142857142857, 22.585714285714285], [87.5142857142857, 22.314285714285713]]]}}, {"type": "Feature", "properties": {"id": 50, "name": "Constituency 50"}, "geometry": {"type": "Polygon", "coordinates": [[[87.8, 22.314285714285713], [88.08571428571429, 22.314285714285713], [88.08571428571429, 22.585714285714285], [87.8, 22.585714285714285], [87.8, 22.314285714285713]]]}}, {"type": "Feature", "properties": {"id": 51, "name": "Constituency 51"}, "geometry": {"type": "Polygon", "coordinates": [[[88.08571428571429, 22.314285714285713], [88.37142857142858, 22.314285714285713], [88.37142857142858, 22.585714285714285], [88.08571428571429, 22.585714285714285], [88.08571428571429, 22.314285714285713]]]}}, {"type": "Feature", "properties": {"id": 52, "name": "Constituency 52"}, "geometry": {"type": "Polygon", "coordinates": [[[88.37142857142857, 22.314285714285713], [88.65714285714286, 22.314285714285713], [88.65714285714286, 22.585714285714285], [88.37142857142857, 22.585714285714285], [88.37142857142857, 22.314285714285713]]]}}, {"type": "Feature", "properties": {"id": 53, "name": "Constituency 53"}, "geometry": {"type": "Polygon", "coordinates": [[[88.65714285714286, 22.314285714285713], [88.94285714285715, 22.314285714285713], [88.94285714285715, 22.585714285714285], [88.65714285714286, 22.585714285714285], [88.65714285714286, 22.314285714285713]]]}}, {"type": "Feature", "properties": {"id": 54, "name": "Constituency 54"}, "geometry": {"type": "Polygon", "coordinates": [[[88.94285714285714, 22.314285714285713], [89.22857142857143, 22.314285714285713], [89.22857142857143, 22.585714285714285], [88.94285714285714, 22.585714285714285], [88.94285714285714, 22.314285714285713]]]}}, {"type": "Feature", "properties": {"id": 55, "name": "Constituency 55"}, "geometry": {"type": "Polygon", "coordinates": [[[89.22857142857143, 22.314285714285713], [89.51428571428572, 22.314285714285713], [89.51428571428572, 22.585714285714285], [89.22857142857143, 22.585714285714285], [89.22857142857143, 22.314285714285713]]]}}, {"type": "Feature", "properties": {"id": 56, "name": "Constituency 56"}, "geometry": {"type": "Polygon", "coordinates": [[[89.5142857142857, 22.314285714285713], [89.8, 22.314285714285713], [89.8, 22.585714285714285], [89.5142857142857, 22.585714285714285], [89.5142857142857, 22.314285714285713]]]}}, {"type": "Feature", "properties": {"id": 57, "name": "Constituency 57"}, "geometry": {"type": "Polygon", "coordinates": [[[85.8, 22.585714285714285], [86.08571428571429, 22.585714285714285], [86.08571428571429, 22.857142857142858], [85.8, 22.857142857142858], [85.8, 22.585714285714285]]]}}, {"type": "Feature", "properties": {"id": 58, "name": "Constituency 58"}, "geometry": {"type": "Polygon", "coordinates": [[[86.08571428571429, 22.585714285714285], [86.37142857142858, 22.585714285714285], [86.37142857142858, 22.857142857142858], [86.08571428571429, 22.857142857142858], [86.08571428571429, 22.585714285714285]]]}}, {"type": "Feature", "properties": {"id": 59, "name": "Constituency 59"}, "geometry": {"type": "Polygon", "coordinates": [[[86.37142857142857, 22.585714285714285], [86.65714285714286, 22.585714285714285], [86.65714285714286, 22.857142857142858], [86.37142857142857, 22.857142857142858], [86.37142857142857, 22.585714285714285]]]}}, {"type": "Feature", "properties": {"id": 60, "name": "Constituency 60"}, "geometry": {"type": "Polygon", "coordinates": [[[86.65714285714286, 22.585714285714285], [86.94285714285715, 22.585714285714285], [86.94285714285715, 22.857142857142858], [86.65714285714286, 22.857142857142858], [86.65714285714286, 22.585714285714285]]]}}, {"type": "Feature", "properties": {"id": 61, "name": "Constituency 61"}, "geometry": {"type": "Polygon", "coordinates": [[[86.94285714285714, 22.585714285714285], [87.22857142857143, 22.585714285714285], [87.22857142857143, 22.857142857142858], [86.94285714285714, 22.857142857142858], [86.94285714285714, 22.585714285714285]]]}}, {"type": "Feature", "properties": {"id": 62, "name": "Constituency 62"}, "geometry": {"type": "Polygon", "coordinates": [[[87.22857142857143, 22.585714285714285], [87.51428571428572, 22.585714285714285], [87.51428571428572, 22.857142857142858], [87.22857142857143, 22.857142857142858], [87.22857142857143, 22.585714285714285]]]}}, {"type": "Feature", "properties": {"id": 63, "name": "Constituency 63"}, "geometry": {"type": "Polygon", "coordinates": [[[87.5142857142857, 22.585714285714285], [87.8, 22.585714285714285], [87.8, 22.857142857142858], [87.5142857142857, 22.857142857142858], [87.5142857142857, 22.585714285714285]]]}}, {"type": "Feature", "properties": {"id": 64, "name": "Constituency 64"}, "geometry": {"type": "Polygon", "coordinates": [[[87.8, 22.585714285714285], [88.08571428571429, 22.585714285714285], [88.08571428571429, 22.857142857142858], [87.8, 22.857142857142858], [87.8, 22.585714285714285]]]}}, {"type": "Feature", "properties": {"id": 65, "name": "Constituency 65"}, "geometry": {"type": "Polygon", "coordinates": [[[88.08571428571429, 22.585714285714285], [88.37142857142858, 22.585714285714285], [88.37142857142858, 22.857142857142858], [88.08571428571429, 22.857142857142858], [88.08571428571429, 22.585714285714285]]]}}, {"type": "Feature", "properties": {"id": 66, "name": "Constituency 66"}, "geometry": {"type": "Polygon", "coordinates": [[[88.37142857142857, 22.585714285714285], [88.65714285714286, 22.585714285714285], [88.65714285714286, 22.857142857142858], [88.37142857142857, 22.857142857142858], [88.37142857142857, 22.585714285714285]]]}}, {"type": "Feature", "properties": {"id": 67, "name": "Constituency 67"}, "geometry": {"type": "Polygon", "coordinates": [[[88.65714285714286, 22.585714285714285], [88.94285714285715, 22.585714285714285], [88.94285714285715, 22.857142857142858], [88.65714285714286, 22.857142857142858], [88.65714285714286, 22.585714285714285]]]}}, {"type": "Feature", "properties": {"id": 68, "name": "Constituency 68"}, "geometry": {"type": "Polygon", "coordinates": [[[88.94285714285714, 22.585714285714285], [89.22857142857143, 22.585714285714285], [89.22857142857143, 22.857142857142858], [88.94285714285714, 22.857142857142858], [88.94285714285714, 22.585714285714285]]]}}, {"type": "Feature", "properties": {"id": 69, "name": "Constituency 69"}, "geometry": {"type": "Polygon", "coordinates": [[[89.22857142857143, 22.585714285714285], [89.51428571428572, 22.585714285714285], [89.51428571428572, 22.857142857142858], [89.22857142857143, 22.857142857142858], [89.22857142857143, 22.585714285714285]]]}}, {"type": "Feature", "properties": {"id": 70, "name": "Constituency 70"}, "geometry": {"type": "Polygon", "coordinates": [[[89.5142857142857, 22.585714285714285], [89.8, 22.585714285714285], [89.8, 22.857142857142858], [89.5142857142857, 22.857142857142858], [89.5142857142857, 22.585714285714285]]]}}, {"type": "Feature", "properties": {"id": 71, "name": "Constituency 71"}, "geometry": {"type": "Polygon", "coordinates": [[[85.8, 22.857142857142858], [86.08571428571429, 22.857142857142858], [86.08571428571429, 23.12857142857143], [85.8, 23.12857142857143], [85.8, 22.857142857142858]]]}}, {"type": "Feature", "properties": {"id": 72, "name": "Constituency 72"}, "geometry": {"type": "Polygon", "coordinates": [[[86.08571428571429, 22.857142857142858], [86.37142857142858, 22.857142857142858], [86.37142857142858, 23.12857142857143], [86.08571428571429, 23.12857142857143], [86.08571428571429, 22.857142857142858]]]}}, {"type": "Feature", "properties": {"id": 73, "name": "Constituency 73"}, "geometry": {"type": "Polygon", "coordinates": [[[86.37142857142857, 22.857142857142858], [86.65714285714286, 22.857142857142858], [86.65714285714286, 23.12857142857143], [86.37142857142857, 23.12857142857143], [86.37142857142857, 22.857142857142858]]]}}, {"type": "Feature", "properties": {"id": 74, "name": "Constituency 74"}, "geometry": {"type": "Polygon", "coordinates": [[[86.65714285714286, 22.857142857142858], [86.94285714285715, 22.857142857142858], [86.94285714285715, 23.12857142857143], [86.65714285714286, 23.12857142857143], [86.65714285714286, 22.857142857142858]]]}}, {"type": "Feature", "properties": {"id": 75, "name": "Constituency 75"}, "geometry": {"type": "Polygon", "coordinates": [[[86.94285714285714, 22.857142857142858], [87.22857142857143, 22.857142857142858], [87.22857142857143, 23.12857142857143], [86.94285714285714, 23.12857142857143], [86.94285714285714, 22.857142857142858]]]}}, {"type": "Feature", "properties": {"id": 76, "name": "Constituency 76"}, "geometry": {"type": "Polygon", "coordinates": [[[87.22857142857143, 22.857142857142858], [87.51428571428572, 22.857142857142858], [87.51428571428572, 23.12857142857143], [87.22857142857143, 23.12857142857143], [87.22857142857143, 22.857142857142858]]]}}, {"type": "Feature", "properties": {"id": 77, "name": "Constituency 77"}, "geometry": {"type": "Polygon", "coordinates": [[[87.5142857142857, 22.857142857142858], [87.8, 22.857142857142858], [87.8, 23.12857142857143], [87.5142857142857, 23.12857142857143], [87.5142857142857, 22.857142857142858]]]}}, {"type": "Feature", "properties": {"id": 78, "name": "Constituency 78"}, "geometry": {"type": "Polygon", "coordinates": [[[87.8, 22.857142857142858], [88.08571428571429, 22.857142857142858], [88.08571428571429, 23.12857142857143], [87.8, 23.12857142857143], [87.8, 22.857142857142858]]]}}, {"type": "Feature", "properties": {"id": 79, "name": "Constituency 79"}, "geometry": {"type": "Polygon", "coordinates": [[[88.08571428571429, 22.857142857142858], [88.37142857142858, 22.857142857142858], [88.37142857142858, 23.12857142857143], [88.08571428571429, 23.12857142857143], [88.08571428571429, 22.857142857142858]]]}}, {"type": "Feature", "properties": {"id": 80, "name": "Constituency 80"}, "geometry": {"type": "Polygon", "coordinates": [[[88.37142857142857, 22.857142857142858], [88.65714285714286, 22.857142857142858], [88.65714285714286, 23.12857142857143], [88.37142857142857, 23.12857142857143], [88.37142857142857, 22.857142857142858]]]}}, {"type": "Feature", "properties": {"id": 81, "name": "Constituency 81"}, "geometry": {"type": "Polygon", "coordinates": [[[88.65714285714286, 22.857142857142858], [88.94285714285715, 22.857142857142858], [88.94285714285715, 23.12857142857143], [88.65714285714286, 23.12857142857143], [88.65714285714286, 22.857142857142858]]]}}, {"type": "Feature", "properties": {"id": 82, "name": "Constituency 82"}, "geometry": {"type": "Polygon", "coordinates": [[[88.94285714285714, 22.857142857142858], [89.22857142857143, 22.857142857142858], [89.22857142857143, 23.12857142857143], [88.94285714285714, 23.12857142857143], [88.94285714285714, 22.857142857142858]]]}}, {"type": "Feature", "properties": {"id": 83, "name": "Constituency 83"}, "geometry": {"type": "Polygon", "coordinates": [[[89.22857142857143, 22.857142857142858], [89.51428571428572, 22.857142857142858], [89.51428571428572, 23.12857142857143], [89.22857142857143, 23.12857142857143], [89.22857142857143, 22.857142857142858]]]}}, {"type": "Feature", "properties": {"id": 84, "name": "Constituency 84"}, "geometry": {"type": "Polygon", "coordinates": [[[89.5142857142857, 22.857142857142858], [89.8, 22.857142857142858], [89.8, 23.12857142857143], [89.5142857142857, 23.12857142857143], [89.5142857142857, 22.857142857142858]]]}}, {"type": "Feature", "properties": {"id": 85, "name": "Constituency 85"}, "geometry": {"type": "Polygon", "coordinates": [[[85.8, 23.12857142857143], [86.08571428571429, 23.12857142857143], [86.08571428571429, 23.400000000000002], [85.8, 23.400000000000002], [85.8, 23.12857142857143]]]}}, {"type": "Feature", "properties": {"id": 86, "name": "Constituency 86"}, "geometry": {"type": "Polygon", "coordinates": [[[86.08571428571429, 23.12857142857143], [86.37142857142858, 23.12857142857143], [86.37142857142858, 23.400000000000002], [86.08571428571429, 23.400000000000002], [86.08571428571429, 23.12857142857143]]]}}, {"type": "Feature", "properties": {"id": 87, "name": "Constituency 87"}, "geometry": {"type": "Polygon", "coordinates": [[[86.37142857142857, 23.12857142857143], [86.65714285714286, 23.12857142857143], [86.65714285714286, 23.400000000000002], [86.37142857142857, 23.400000000000002], [86.37142857142857, 23.12857142857143]]]}}, {"type": "Feature", "properties": {"id": 88, "name": "Constituency 88"}, "geometry": {"type": "Polygon", "coordinates": [[[86.65714285714286, 23.12857142857143], [86.94285714285715, 23.12857142857143], [86.94285714285715, 23.400000000000002], [86.65714285714286, 23.400000000000002], [86.65714285714286, 23.12857142857143]]]}}, {"type": "Feature", "properties": {"id": 89, "name": "Constituency 89"}, "geometry": {"type": "Polygon", "coordinates": [[[86.94285714285714, 23.12857142857143], [87.22857142857143, 23.12857142857143], [87.22857142857143, 23.400000000000002], [86.94285714285714, 23.400000000000002], [86.94285714285714, 23.12857142857143]]]}}, {"type": "Feature", "properties": {"id": 90, "name": "Constituency 90"}, "geometry": {"type": "Polygon", "coordinates": [[[87.22857142857143, 23.12857142857143], [87.51428571428572, 23.12857142857143], [87.51428571428572, 23.400000000000002], [87.22857142857143, 23.400000000000002], [87.22857142857143, 23.12857142857143]]]}}, {"type": "Feature", "properties": {"id": 91, "name": "Constituency 91"}, "geometry": {"type": "Polygon", "coordinates": [[[87.5142857142857, 23.12857142857143], [87.8, 23.12857142857143], [87.8, 23.400000000000002], [87.5142857142857, 23.400000000000002], [87.5142857142857, 23.12857142857143]]]}}, {"type": "Feature", "properties": {"id": 92, "name": "Constituency 92"}, "geometry": {"type": "Polygon", "coordinates": [[[87.8, 23.12857142857143], [88.08571428571429, 23.12857142857143], [88.08571428571429, 23.400000000000002], [87.8, 23.400000000000002], [87.8, 23.12857142857143]]]}}, {"type": "Feature", "properties": {"id": 93, "name": "Constituency 93"}, "geometry": {"type": "Polygon", "coordinates": [[[88.08571428571429, 23.12857142857143], [88.37142857142858, 23.12857142857143], [88.37142857142858, 23.400000000000002], [88.08571428571429, 23.400000000000002], [88.08571428571429, 23.12857142857143]]]}}, {"type": "Feature", "properties": {"id": 94, "name": "Constituency 94"}, "geometry": {"type": "Polygon", "coordinates": [[[88.37142857142857, 23.12857142857143], [88.65714285714286, 23.12857142857143], [88.65714285714286, 23.400000000000002], [88.37142857142857, 23.400000000000002], [88.37142857142857, 23.12857142857143]]]}}, {"type": "Feature", "properties": {"id": 95, "name": "Constituency 95"}, "geometry": {"type": "Polygon", "coordinates": [[[88.65714285714286, 23.12857142857143], [88.94285714285715, 23.12857142857143], [88.94285714285715, 23.400000000000002], [88.65714285714286, 23.400000000000002], [88.65714285714286, 23.12857142857143]]]}}, {"type": "Feature", "properties": {"id": 96, "name": "Constituency 96"}, "geometry": {"type": "Polygon", "coordinates": [[[88.94285714285714, 23.12857142857143], [89.22857142857143, 23.12857142857143], [89.22857142857143, 23.400000000000002], [88.94285714285714, 23.400000000000002], [88.94285714285714, 23.12857142857143]]]}}, {"type": "Feature", "properties": {"id": 97, "name": "Constituency 97"}, "geometry": {"type": "Polygon", "coordinates": [[[89.22857142857143, 23.12857142857143], [89.51428571428572, 23.12857142857143], [89.51428571428572, 23.400000000000002], [89.22857142857143, 23.400000000000002], [89.22857142857143, 23.12857142857143]]]}}, {"type": "Feature", "properties": {"id": 98, "name": "Constituency 98"}, "geometry": {"type": "Polygon", "coordinates": [[[89.5142857142857, 23.12857142857143], [89.8, 23.12857142857143], [89.8, 23.400000000000002], [89.5142857142857, 23.400000000000002], [89.5142857142857, 23.12857142857143]]]}}, {"type": "Feature", "properties": {"id": 99, "name": "Constituency 99"}, "geometry": {"type": "Polygon", "coordinates": [[[85.8, 23.4], [86.08571428571429, 23.4], [86.08571428571429, 23.67142857142857], [85.8, 23.67142857142857], [85.8, 23.4]]]}}, {"type": "Feature", "properties": {"id": 100, "name": "Constituency 100"}, "geometry": {"type": "Polygon", "coordinates": [[[86.08571428571429, 23.4], [86.37142857142858, 23.4], [86.37142857142858, 23.67142857142857], [86.08571428571429, 23.67142857142857], [86.08571428571429, 23.4]]]}}, {"type": "Feature", "properties": {"id": 101, "name": "Constituency 101"}, "geometry": {"type": "Polygon", "coordinates": [[[86.37142857142857, 23.4], [86.65714285714286, 23.4], [86.65714285714286, 23.67142857142857], [86.37142857142857, 23.67142857142857], [86.37142857142857, 23.4]]]}}, {"type": "Feature", "properties": {"id": 102, "name": "Constituency 102"}, "geometry": {"type": "Polygon", "coordinates": [[[86.65714285714286, 23.4], [86.94285714285715, 23.4], [86.94285714285715, 23.67142857142857], [86.65714285714286, 23.67142857142857], [86.65714285714286, 23.4]]]}}, {"type": "Feature", "properties": {"id": 103, "name": "Constituency 103"}, "geometry": {"type": "Polygon", "coordinates": [[[86.94285714285714, 23.4], [87.22857142857143, 23.4], [87.22857142857143, 23.67142857142857], [86.94285714285714, 23.67142857142857], [86.94285714285714, 23.4]]]}}, {"type": "Feature", "properties": {"id": 104, "name": "Constituency 104"}, "geometry": {"type": "Polygon", "coordinates": [[[87.22857142857143, 23.4], [87.51428571428572, 23.4], [87.51428571428572, 23.67142857142857], [87.22857142857143, 23.67142857142857], [87.22857142857143, 23.4]]]}}, {"type": "Feature", "properties": {"id": 105, "name": "Constituency 105"}, "geometry": {"type": "Polygon", "coordinates": [[[87.5142857142857, 23.4], [87.8, 23.4], [87.8, 23.67142857142857], [87.5142857142857, 23.67142857142857], [87.5142857142857, 23.4]]]}}, {"type": "Feature", "properties": {"id": 106, "name": "Constituency 106"}, "geometry": {"type": "Polygon", "coordinates": [[[87.8, 23.4], [88.08571428571429, 23.4], [88.08571428571429, 23.67142857142857], [87.8, 23.67142857142857], [87.8, 23.4]]]}}, {"type": "Feature", "properties": {"id": 107, "name": "Constituency 107"}, "geometry": {"type": "Polygon", "coordinates": [[[88.08571428571429, 23.4], [88.37142857142858, 23.4], [88.37142857142858, 23.67142857142857], [88.08571428571429, 23.67142857142857], [88.08571428571429, 23.4]]]}}, {"type": "Feature", "properties": {"id": 108, "name": "Constituency 108"}, "geometry": {"type": "Polygon", "coordinates": [[[88.37142857142857, 23.4], [88.65714285714286, 23.4], [88.65714285714286, 23.67142857142857], [88.37142857142857, 23.67142857142857], [88.37142857142857, 23.4]]]}}, {"type": "Feature", "properties": {"id": 109, "name": "Constituency 109"}, "geometry": {"type": "Polygon", "coordinates": [[[88.65714285714286, 23.4], [88.94285714285715, 23.4], [88.94285714285715, 23.67142857142857], [88.65714285714286, 23.67142857142857], [88.65714285714286, 23.4]]]}}, {"type": "Feature", "properties": {"id": 110, "name": "Constituency 110"}, "geometry": {"type": "Polygon", "coordinates": [[[88.94285714285714, 23.4], [89.22857142857143, 23.4], [89.22857142857143, 23.67142857142857], [88.94285714285714, 23.67142857142857], [88.94285714285714, 23.4]]]}}, {"type": "Feature", "properties": {"id": 111, "name": "Constituency 111"}, "geometry": {"type": "Polygon", "coordinates": [[[89.22857142857143, 23.4], [89.51428571428572, 23.4], [89.51428571428572, 23.67142857142857], [89.22857142857143, 23.67142857142857], [89.22857142857143, 23.4]]]}}, {"type": "Feature", "properties": {"id": 112, "name": "Constituency 112"}, "geometry": {"type": "Polygon", "coordinates": [[[89.5142857142857, 23.4], [89.8, 23.4], [89.8, 23.67142857142857], [89.5142857142857, 23.67142857142857], [89.5142857142857, 23.4]]]}}, {"type": "Feature", "properties": {"id": 113, "name": "Constituency 113"}, "geometry": {"type": "Polygon", "coordinates": [[[85.8, 23.67142857142857], [86.08571428571429, 23.67142857142857], [86.08571428571429, 23.942857142857143], [85.8, 23.942857142857143], [85.8, 23.67142857142857]]]}}, {"type": "Feature", "properties": {"id": 114, "name": "Constituency 114"}, "geometry": {"type": "Polygon", "coordinates": [[[86.08571428571429, 23.67142857142857], [86.37142857142858, 23.67142857142857], [86.37142857142858, 23.942857142857143], [86.08571428571429, 23.942857142857143], [86.08571428571429, 23.67142857142857]]]}}, {"type": "Feature", "properties": {"id": 115, "name": "Constituency 115"}, "geometry": {"type": "Polygon", "coordinates": [[[86.37142857142857, 23.67142857142857], [86.65714285714286, 23.67142857142857], [86.65714285714286, 23.942857142857143], [86.37142857142857, 23.942857142857143], [86.37142857142857, 23.67142857142857]]]}}, {"type": "Feature", "properties": {"id": 116, "name": "Constituency 116"}, "geometry": {"type": "Polygon", "coordinates": [[[86.65714285714286, 23.67142857142857], [86.94285714285715, 23.67142857142857], [86.94285714285715, 23.942857142857143], [86.65714285714286, 23.942857142857143], [86.65714285714286, 23.67142857142857]]]}}, {"type": "Feature", "properties": {"id": 117, "name": "Constituency 117"}, "geometry": {"type": "Polygon", "coordinates": [[[86.94285714285714, 23.67142857142857], [87.22857142857143, 23.67142857142857], [87.22857142857143, 23.942857142857143], [86.94285714285714, 23.942857142857143], [86.94285714285714, 23.67142857142857]]]}}, {"type": "Feature", "properties": {"id": 118, "name": "Constituency 118"}, "geometry": {"type": "Polygon", "coordinates": [[[87.22857142857143, 23.67142857142857], [87.51428571428572, 23.67142857142857], [87.51428571428572, 23.942857142857143], [87.22857142857143, 23.942857142857143], [87.22857142857143, 23.67142857142857]]]}}, {"type": "Feature", "properties": {"id": 119, "name": "Constituency 119"}, "geometry": {"type": "Polygon", "coordinates": [[[87.5142857142857, 23.67142857142857], [87.8, 23.67142857142857], [87.8, 23.942857142857143], [87.5142857142857, 23.942857142857143], [87.5142857142857, 23.67142857142857]]]}}, {"type": "Feature", "properties": {"id": 120, "name": "Constituency 120"}, "geometry": {"type": "Polygon", "coordinates": [[[87.8, 23.67142857142857], [88.08571428571429, 23.67142857142857], [88.08571428571429, 23.942857142857143], [87.8, 23.942857142857143], [87.8, 23.67142857142857]]]}}, {"type": "Feature", "properties": {"id": 121, "name": "Constituency 121"}, "geometry": {"type": "Polygon", "coordinates": [[[88.08571428571429, 23.67142857142857], [88.37142857142858, 23.67142857142857], [88.37142857142858, 23.942857142857143], [88.08571428571429, 23.942857142857143], [88.08571428571429, 23.67142857142857]]]}}, {"type": "Feature", "properties": {"id": 122, "name": "Constituency 122"}, "geometry": {"type": "Polygon", "coordinates": [[[88.37142857142857, 23.67142857142857], [88.65714285714286, 23.67142857142857], [88.65714285714286, 23.942857142857143], [88.37142857142857, 23.942857142857143], [88.37142857142857, 23.67142857142857]]]}}, {"type": "Feature", "properties": {"id": 123, "name": "Constituency 123"}, "geometry": {"type": "Polygon", "coordinates": [[[88.65714285714286, 23.67142857142857], [88.94285714285715, 23.67142857142857], [88.94285714285715, 23.942857142857143], [88.65714285714286, 23.942857142857143], [88.65714285714286, 23.67142857142857]]]}}, {"type": "Feature", "properties": {"id": 124, "name": "Constituency 124"}, "geometry": {"type": "Polygon", "coordinates": [[[88.94285714285714, 23.67142857142857], [89.22857142857143, 23.67142857142857], [89.22857142857143, 23.942857142857143], [88.94285714285714, 23.942857142857143], [88.94285714285714, 23.67142857142857]]]}}, {"type": "Feature", "properties": {"id": 125, "name": "Constituency 125"}, "geometry": {"type": "Polygon", "coordinates": [[[89.22857142857143, 23.67142857142857], [89.51428571428572, 23.67142857142857], [89.51428571428572, 23.942857142857143], [89.22857142857143, 23.942857142857143], [89.22857142857143, 23.67142857142857]]]}}, {"type": "Feature", "properties": {"id": 126, "name": "Constituency 126"}, "geometry": {"type": "Polygon", "coordinates": [[[89.5142857142857, 23.67142857142857], [89.8, 23.67142857142857], [89.8, 23.942857142857143], [89.5142857142857, 23.942857142857143], [89.5142857142857, 23.67142857142857]]]}}, {"type": "Feature", "properties": {"id": 127, "name": "Constituency 127"}, "geometry": {"type": "Polygon", "coordinates": [[[85.8, 23.942857142857143], [86.08571428571429, 23.942857142857143], [86.08571428571429, 24.214285714285715], [85.8, 24.214285714285715], [85.8, 23.942857142857143]]]}}, {"type": "Feature", "properties": {"id": 128, "name": "Constituency 128"}, "geometry": {"type": "Polygon", "coordinates": [[[86.08571428571429, 23.942857142857143], [86.37142857142858, 23.942857142857143], [86.37142857142858, 24.214285714285715], [86.08571428571429, 24.214285714285715], [86.08571428571429, 23.942857142857143]]]}}, {"type": "Feature", "properties": {"id": 129, "name": "Constituency 129"}, "geometry": {"type": "Polygon", "coordinates": [[[86.37142857142857, 23.942857142857143], [86.65714285714286, 23.942857142857143], [86.65714285714286, 24.214285714285715], [86.37142857142857, 24.214285714285715], [86.37142857142857, 23.942857142857143]]]}}, {"type": "Feature", "properties": {"id": 130, "name": "Constituency 130"}, "geometry": {"type": "Polygon", "coordinates": [[[86.65714285714286, 23.942857142857143], [86.94285714285715, 23.942857142857143], [86.94285714285715, 24.214285714285715], [86.65714285714286, 24.214285714285715], [86.65714285714286, 23.942857142857143]]]}}, {"type": "Feature", "properties": {"id": 131, "name": "Constituency 131"}, "geometry": {"type": "Polygon", "coordinates": [[[86.94285714285714, 23.942857142857143], [87.22857142857143, 23.942857142857143], [87.22857142857143, 24.214285714285715], [86.94285714285714, 24.214285714285715], [86.94285714285714, 23.942857142857143]]]}}, {"type": "Feature", "properties": {"id": 132, "name": "Constituency 132"}, "geometry": {"type": "Polygon", "coordinates": [[[87.22857142857143, 23.942857142857143], [87.51428571428572, 23.942857142857143], [87.51428571428572, 24.214285714285715], [87.22857142857143, 24.214285714285715], [87.22857142857143, 23.942857142857143]]]}}, {"type": "Feature", "properties": {"id": 133, "name": "Constituency 133"}, "geometry": {"type": "Polygon", "coordinates": [[[87.5142857142857, 23.942857142857143], [87.8, 23.942857142857143], [87.8, 24.214285714285715], [87.5142857142857, 24.214285714285715], [87.5142857142857, 23.942857142857143]]]}}, {"type": "Feature", "properties": {"id": 134, "name": "Constituency 134"}, "geometry": {"type": "Polygon", "coordinates": [[[87.8, 23.942857142857143], [88.08571428571429, 23.942857142857143], [88.08571428571429, 24.214285714285715], [87.8, 24.214285714285715], [87.8, 23.942857142857143]]]}}, {"type": "Feature", "properties": {"id": 135, "name": "Constituency 135"}, "geometry": {"type": "Polygon", "coordinates": [[[88.08571428571429, 23.942857142857143], [88.37142857142858, 23.942857142857143], [88.37142857142858, 24.214285714285715], [88.08571428571429, 24.214285714285715], [88.08571428571429, 23.942857142857143]]]}}, {"type": "Feature", "properties": {"id": 136, "name": "Constituency 136"}, "geometry": {"type": "Polygon", "coordinates": [[[88.37142857142857, 23.942857142857143], [88.65714285714286, 23.942857142857143], [88.65714285714286, 24.214285714285715], [88.37142857142857, 24.214285714285715], [88.37142857142857, 23.942857142857143]]]}}, {"type": "Feature", "properties": {"id": 137, "name": "Constituency 137"}, "geometry": {"type": "Polygon", "coordinates": [[[88.65714285714286, 23.942857142857143], [88.94285714285715, 23.942857142857143], [88.94285714285715, 24.214285714285715], [88.65714285714286, 24.214285714285715], [88.65714285714286, 23.942857142857143]]]}}, {"type": "Feature", "properties": {"id": 138, "name": "Constituency 138"}, "geometry": {"type": "Polygon", "coordinates": [[[88.94285714285714, 23.942857142857143], [89.22857142857143, 23.942857142857143], [89.22857142857143, 24.214285714285715], [88.94285714285714, 24.214285714285715], [88.94285714285714, 23.942857142857143]]]}}, {"type": "Feature", "properties": {"id": 139, "name": "Constituency 139"}, "geometry": {"type": "Polygon", "coordinates": [[[89.22857142857143, 23.942857142857143], [89.51428571428572, 23.942857142857143], [89.51428571428572, 24.214285714285715], [89.22857142857143, 24.214285714285715], [89.22857142857143, 23.942857142857143]]]}}, {"type": "Feature", "properties": {"id": 140, "name": "Constituency 140"}, "geometry": {"type": "Polygon", "coordinates": [[[89.5142857142857, 23.942857142857143], [89.8, 23.942857142857143], [89.8, 24.214285714285715], [89.5142857142857, 24.214285714285715], [89.5142857142857, 23.942857142857143]]]}}, {"type": "Feature", "properties": {"id": 141, "name": "Constituency 141"}, "geometry": {"type": "Polygon", "coordinates": [[[85.8, 24.214285714285715], [86.08571428571429, 24.214285714285715], [86.08571428571429, 24.485714285714288], [85.8, 24.485714285714288], [85.8, 24.214285714285715]]]}}, {"type": "Feature", "properties": {"id": 142, "name": "Constituency 142"}, "geometry": {"type": "Polygon", "coordinates": [[[86.08571428571429, 24.214285714285715], [86.37142857142858, 24.214285714285715], [86.37142857142858, 24.485714285714288], [86.08571428571429, 24.485714285714288], [86.08571428571429, 24.214285714285715]]]}}, {"type": "Feature", "properties": {"id": 143, "name": "Constituency 143"}, "geometry": {"type": "Polygon", "coordinates": [[[86.37142857142857, 24.214285714285715], [86.65714285714286, 24.214285714285715], [86.65714285714286, 24.485714285714288], [86.37142857142857, 24.485714285714288], [86.37142857142857, 24.214285714285715]]]}}, {"type": "Feature", "properties": {"id": 144, "name": "Constituency 144"}, "geometry": {"type": "Polygon", "coordinates": [[[86.65714285714286, 24.214285714285715], [86.94285714285715, 24.214285714285715], [86.94285714285715, 24.485714285714288], [86.65714285714286, 24.485714285714288], [86.65714285714286, 24.214285714285715]]]}}, {"type": "Feature", "properties": {"id": 145, "name": "Constituency 145"}, "geometry": {"type": "Polygon", "coordinates": [[[86.94285714285714, 24.214285714285715], [87.22857142857143, 24.214285714285715], [87.22857142857143, 24.485714285714288], [86.94285714285714, 24.485714285714288], [86.94285714285714, 24.214285714285715]]]}}, {"type": "Feature", "properties": {"id": 146, "name": "Constituency 146"}, "geometry": {"type": "Polygon", "coordinates": [[[87.22857142857143, 24.214285714285715], [87.51428571428572, 24.214285714285715], [87.51428571428572, 24.485714285714288], [87.22857142857143, 24.485714285714288], [87.22857142857143, 24.214285714285715]]]}}, {"type": "Feature", "properties": {"id": 147, "name": "Constituency 147"}, "geometry": {"type": "Polygon", "coordinates": [[[87.5142857142857, 24.214285714285715], [87.8, 24.214285714285715], [87.8, 24.485714285714288], [87.5142857142857, 24.485714285714288], [87.5142857142857, 24.214285714285715]]]}}, {"type": "Feature", "properties": {"id": 148, "name": "Constituency 148"}, "geometry": {"type": "Polygon", "coordinates": [[[87.8, 24.214285714285715], [88.08571428571429, 24.214285714285715], [88.08571428571429, 24.485714285714288], [87.8, 24.485714285714288], [87.8, 24.214285714285715]]]}}, {"type": "Feature", "properties": {"id": 149, "name": "Constituency 149"}, "geometry": {"type": "Polygon", "coordinates": [[[88.08571428571429, 24.214285714285715], [88.37142857142858, 24.214285714285715], [88.37142857142858, 24.485714285714288], [88.08571428571429, 24.485714285714288], [88.08571428571429, 24.214285714285715]]]}}, {"type": "Feature", "properties": {"id": 150, "name": "Constituency 150"}, "geometry": {"type": "Polygon", "coordinates": [[[88.37142857142857, 24.214285714285715], [88.65714285714286, 24.214285714285715], [88.65714285714286, 24.485714285714288], [88.37142857142857, 24.485714285714288], [88.37142857142857, 24.214285714285715]]]}}, {"type": "Feature", "properties": {"id": 151, "name": "Constituency 151"}, "geometry": {"type": "Polygon", "coordinates": [[[88.65714285714286, 24.214285714285715], [88.94285714285715, 24.214285714285715], [88.94285714285715, 24.485714285714288], [88.65714285714286, 24.485714285714288], [88.65714285714286, 24.214285714285715]]]}}, {"type": "Feature", "properties": {"id": 152, "name": "Constituency 152"}, "geometry": {"type": "Polygon", "coordinates": [[[88.94285714285714, 24.214285714285715], [89.22857142857143, 24.214285714285715], [89.22857142857143, 24.485714285714288], [88.94285714285714, 24.485714285714288], [88.94285714285714, 24.214285714285715]]]}}, {"type": "Feature", "properties": {"id": 153, "name": "Constituency 153"}, "geometry": {"type": "Polygon", "coordinates": [[[89.22857142857143, 24.214285714285715], [89.51428571428572, 24.214285714285715], [89.51428571428572, 24.485714285714288], [89.22857142857143, 24.485714285714288], [89.22857142857143, 24.214285714285715]]]}}, {"type": "Feature", "properties": {"id": 154, "name": "Constituency 154"}, "geometry": {"type": "Polygon", "coordinates": [[[89.5142857142857, 24.214285714285715], [89.8, 24.214285714285715], [89.8, 24.485714285714288], [89.5142857142857, 24.485714285714288], [89.5142857142857, 24.214285714285715]]]}}, {"type": "Feature", "properties": {"id": 155, "name": "Constituency 155"}, "geometry": {"type": "Polygon", "coordinates": [[[85.8, 24.485714285714284], [86.08571428571429, 24.485714285714284], [86.08571428571429, 24.757142857142856], [85.8, 24.757142857142856], [85.8, 24.485714285714284]]]}}, {"type": "Feature", "properties": {"id": 156, "name": "Constituency 156"}, "geometry": {"type": "Polygon", "coordinates": [[[86.08571428571429, 24.485714285714284], [86.37142857142858, 24.485714285714284], [86.37142857142858, 24.757142857142856], [86.08571428571429, 24.757142857142856], [86.08571428571429, 24.485714285714284]]]}}, {"type": "Feature", "properties": {"id": 157, "name": "Constituency 157"}, "geometry": {"type": "Polygon", "coordinates": [[[86.37142857142857, 24.485714285714284], [86.65714285714286, 24.485714285714284], [86.65714285714286, 24.757142857142856], [86.37142857142857, 24.757142857142856], [86.37142857142857, 24.485714285714284]]]}}, {"type": "Feature", "properties": {"id": 158, "name": "Constituency 158"}, "geometry": {"type": "Polygon", "coordinates": [[[86.65714285714286, 24.485714285714284], [86.94285714285715, 24.485714285714284], [86.94285714285715, 24.757142857142856], [86.65714285714286, 24.757142857142856], [86.65714285714286, 24.485714285714284]]]}}, {"type": "Feature", "properties": {"id": 159, "name": "Constituency 159"}, "geometry": {"type": "Polygon", "coordinates": [[[86.94285714285714, 24.485714285714284], [87.22857142857143, 24.485714285714284], [87.22857142857143, 24.757142857142856], [86.94285714285714, 24.757142857142856], [86.94285714285714, 24.485714285714284]]]}}, {"type": "Feature", "properties": {"id": 160, "name": "Constituency 160"}, "geometry": {"type": "Polygon", "coordinates": [[[87.22857142857143, 24.485714285714284], [87.51428571428572, 24.485714285714284], [87.51428571428572, 24.757142857142856], [87.22857142857143, 24.757142857142856], [87.22857142857143, 24.485714285714284]]]}}, {"type": "Feature", "properties": {"id": 161, "name": "Constituency 161"}, "geometry": {"type": "Polygon", "coordinates": [[[87.5142857142857, 24.485714285714284], [87.8, 24.485714285714284], [87.8, 24.757142857142856], [87.5142857142857, 24.757142857142856], [87.5142857142857, 24.485714285714284]]]}}, {"type": "Feature", "properties": {"id": 162, "name": "Constituency 162"}, "geometry": {"type": "Polygon", "coordinates": [[[87.8, 24.485714285714284], [88.08571428571429, 24.485714285714284], [88.08571428571429, 24.757142857142856], [87.8, 24.757142857142856], [87.8, 24.485714285714284]]]}}, {"type": "Feature", "properties": {"id": 163, "name": "Constituency 163"}, "geometry": {"type": "Polygon", "coordinates": [[[88.08571428571429, 24.485714285714284], [88.37142857142858, 24.485714285714284], [88.37142857142858, 24.757142857142856], [88.08571428571429, 24.757142857142856], [88.08571428571429, 24.485714285714284]]]}}, {"type": "Feature", "properties": {"id": 164, "name": "Constituency 164"}, "geometry": {"type": "Polygon", "coordinates": [[[88.37142857142857, 24.485714285714284], [88.65714285714286, 24.485714285714284], [88.65714285714286, 24.757142857142856], [88.37142857142857, 24.757142857142856], [88.37142857142857, 24.485714285714284]]]}}, {"type": "Feature", "properties": {"id": 165, "name": "Constituency 165"}, "geometry": {"type": "Polygon", "coordinates": [[[88.65714285714286, 24.485714285714284], [88.94285714285715, 24.485714285714284], [88.94285714285715, 24.757142857142856], [88.65714285714286, 24.757142857142856], [88.65714285714286, 24.485714285714284]]]}}, {"type": "Feature", "properties": {"id": 166, "name": "Constituency 166"}, "geometry": {"type": "Polygon", "coordinates": [[[88.94285714285714, 24.485714285714284], [89.22857142857143, 24.485714285714284], [89.22857142857143, 24.757142857142856], [88.94285714285714, 24.757142857142856], [88.94285714285714, 24.485714285714284]]]}}, {"type": "Feature", "properties": {"id": 167, "name": "Constituency 167"}, "geometry": {"type": "Polygon", "coordinates": [[[89.22857142857143, 24.485714285714284], [89.51428571428572, 24.485714285714284], [89.51428571428572, 24.757142857142856], [89.22857142857143, 24.757142857142856], [89.22857142857143, 24.485714285714284]]]}}, {"type": "Feature", "properties": {"id": 168, "name": "Constituency 168"}, "geometry": {"type": "Polygon", "coordinates": [[[89.5142857142857, 24.485714285714284], [89.8, 24.485714285714284], [89.8, 24.757142857142856], [89.5142857142857, 24.757142857142856], [89.5142857142857, 24.485714285714284]]]}}, {"type": "Feature", "properties": {"id": 169, "name": "Constituency 169"}, "geometry": {"type": "Polygon", "coordinates": [[[85.8, 24.757142857142856], [86.08571428571429, 24.757142857142856], [86.08571428571429, 25.02857142857143], [85.8, 25.02857142857143], [85.8, 24.757142857142856]]]}}, {"type": "Feature", "properties": {"id": 170, "name": "Constituency 170"}, "geometry": {"type": "Polygon", "coordinates": [[[86.08571428571429, 24.757142857142856], [86.37142857142858, 24.757142857142856], [86.37142857142858, 25.02857142857143], [86.08571428571429, 25.02857142857143], [86.08571428571429, 24.757142857142856]]]}}, {"type": "Feature", "properties": {"id": 171, "name": "Constituency 171"}, "geometry": {"type": "Polygon", "coordinates": [[[86.37142857142857, 24.757142857142856], [86.65714285714286, 24.757142857142856], [86.65714285714286, 25.02857142857143], [86.37142857142857, 25.02857142857143], [86.37142857142857, 24.757142857142856]]]}}, {"type": "Feature", "properties": {"id": 172, "name": "Constituency 172"}, "geometry": {"type": "Polygon", "coordinates": [[[86.65714285714286, 24.757142857142856], [86.94285714285715, 24.757142857142856], [86.94285714285715, 25.02857142857143], [86.65714285714286, 25.02857142857143], [86.65714285714286, 24.757142857142856]]]}}, {"type": "Feature", "properties": {"id": 173, "name": "Constituency 173"}, "geometry": {"type": "Polygon", "coordinates": [[[86.94285714285714, 24.757142857142856], [87.22857142857143, 24.757142857142856], [87.22857142857143, 25.02857142857143], [86.94285714285714, 25.02857142857143], [86.94285714285714, 24.757142857142856]]]}}, {"type": "Feature", "properties": {"id": 174, "name": "Constituency 174"}, "geometry": {"type": "Polygon", "coordinates": [[[87.22857142857143, 24.757142857142856], [87.51428571428572, 24.757142857142856], [87.51428571428572, 25.02857142857143], [87.22857142857143, 25.02857142857143], [87.22857142857143, 24.757142857142856]]]}}, {"type": "Feature", "properties": {"id": 175, "name": "Constituency 175"}, "geometry": {"type": "Polygon", "coordinates": [[[87.5142857142857, 24.757142857142856], [87.8, 24.757142857142856], [87.8, 25.02857142857143], [87.5142857142857, 25.02857142857143], [87.5142857142857, 24.757142857142856]]]}}, {"type": "Feature", "properties": {"id": 176, "name": "Constituency 176"}, "geometry": {"type": "Polygon", "coordinates": [[[87.8, 24.757142857142856], [88.08571428571429, 24.757142857142856], [88.08571428571429, 25.02857142857143], [87.8, 25.02857142857143], [87.8, 24.757142857142856]]]}}, {"type": "Feature", "properties": {"id": 177, "name": "Constituency 177"}, "geometry": {"type": "Polygon", "coordinates": [[[88.08571428571429, 24.757142857142856], [88.37142857142858, 24.757142857142856], [88.37142857142858, 25.02857142857143], [88.08571428571429, 25.02857142857143], [88.08571428571429, 24.757142857142856]]]}}, {"type": "Feature", "properties": {"id": 178, "name": "Constituency 178"}, "geometry": {"type": "Polygon", "coordinates": [[[88.37142857142857, 24.757142857142856], [88.65714285714286, 24.757142857142856], [88.65714285714286, 25.02857142857143], [88.37142857142857, 25.02857142857143], [88.37142857142857, 24.757142857142856]]]}}, {"type": "Feature", "properties": {"id": 179, "name": "Constituency 179"}, "geometry": {"type": "Polygon", "coordinates": [[[88.65714285714286, 24.757142857142856], [88.94285714285715, 24.757142857142856], [88.94285714285715, 25.02857142857143], [88.65714285714286, 25.02857142857143], [88.65714285714286, 24.757142857142856]]]}}, {"type": "Feature", "properties": {"id": 180, "name": "Constituency 180"}, "geometry": {"type": "Polygon", "coordinates": [[[88.94285714285714, 24.757142857142856], [89.22857142857143, 24.757142857142856], [89.22857142857143, 25.02857142857143], [88.94285714285714, 25.02857142857143], [88.94285714285714, 24.757142857142856]]]}}, {"type": "Feature", "properties": {"id": 181, "name": "Constituency 181"}, "geometry": {"type": "Polygon", "coordinates": [[[89.22857142857143, 24.757142857142856], [89.51428571428572, 24.757142857142856], [89.51428571428572, 25.02857142857143], [89.22857142857143, 25.02857142857143], [89.22857142857143, 24.757142857142856]]]}}, {"type": "Feature", "properties": {"id": 182, "name": "Constituency 182"}, "geometry": {"type": "Polygon", "coordinates": [[[89.5142857142857, 24.757142857142856], [89.8, 24.757142857142856], [89.8, 25.02857142857143], [89.5142857142857, 25.02857142857143], [89.5142857142857, 24.757142857142856]]]}}, {"type": "Feature", "properties": {"id": 183, "name": "Constituency 183"}, "geometry": {"type": "Polygon", "coordinates": [[[85.8, 25.02857142857143], [86.08571428571429, 25.02857142857143], [86.08571428571429, 25.3], [85.8, 25.3], [85.8, 25.02857142857143]]]}}, {"type": "Feature", "properties": {"id": 184, "name": "Constituency 184"}, "geometry": {"type": "Polygon", "coordinates": [[[86.08571428571429, 25.02857142857143], [86.37142857142858, 25.02857142857143], [86.37142857142858, 25.3], [86.08571428571429, 25.3], [86.08571428571429, 25.02857142857143]]]}}, {"type": "Feature", "properties": {"id": 185, "name": "Constituency 185"}, "geometry": {"type": "Polygon", "coordinates": [[[86.37142857142857, 25.02857142857143], [86.65714285714286, 25.02857142857143], [86.65714285714286, 25.3], [86.37142857142857, 25.3], [86.37142857142857, 25.02857142857143]]]}}, {"type": "Feature", "properties": {"id": 186, "name": "Constituency 186"}, "geometry": {"type": "Polygon", "coordinates": [[[86.65714285714286, 25.02857142857143], [86.94285714285715, 25.02857142857143], [86.94285714285715, 25.3], [86.65714285714286, 25.3], [86.65714285714286, 25.02857142857143]]]}}, {"type": "Feature", "properties": {"id": 187, "name": "Constituency 187"}, "geometry": {"type": "Polygon", "coordinates": [[[86.94285714285714, 25.02857142857143], [87.22857142857143, 25.02857142857143], [87.22857142857143, 25.3], [86.94285714285714, 25.3], [86.94285714285714, 25.02857142857143]]]}}, {"type": "Feature", "properties": {"id": 188, "name": "Constituency 188"}, "geometry": {"type": "Polygon", "coordinates": [[[87.22857142857143, 25.02857142857143], [87.51428571428572, 25.02857142857143], [87.51428571428572, 25.3], [87.22857142857143, 25.3], [87.22857142857143, 25.02857142857143]]]}}, {"type": "Feature", "properties": {"id": 189, "name": "Constituency 189"}, "geometry": {"type": "Polygon", "coordinates": [[[87.5142857142857, 25.02857142857143], [87.8, 25.02857142857143], [87.8, 25.3], [87.5142857142857, 25.3], [87.5142857142857, 25.02857142857143]]]}}, {"type": "Feature", "properties": {"id": 190, "name": "Constituency 190"}, "geometry": {"type": "Polygon", "coordinates": [[[87.8, 25.02857142857143], [88.08571428571429, 25.02857142857143], [88.08571428571429, 25.3], [87.8, 25.3], [87.8, 25.02857142857143]]]}}, {"type": "Feature", "properties": {"id": 191, "name": "Constituency 191"}, "geometry": {"type": "Polygon", "coordinates": [[[88.08571428571429, 25.02857142857143], [88.37142857142858, 25.02857142857143], [88.37142857142858, 25.3], [88.08571428571429, 25.3], [88.08571428571429, 25.02857142857143]]]}}, {"type": "Feature", "properties": {"id": 192, "name": "Constituency 192"}, "geometry": {"type": "Polygon", "coordinates": [[[88.37142857142857, 25.02857142857143], [88.65714285714286, 25.02857142857143], [88.65714285714286, 25.3], [88.37142857142857, 25.3], [88.37142857142857, 25.02857142857143]]]}}, {"type": "Feature", "properties": {"id": 193, "name": "Constituency 193"}, "geometry": {"type": "Polygon", "coordinates": [[[88.65714285714286, 25.02857142857143], [88.94285714285715, 25.02857142857143], [88.94285714285715, 25.3], [88.65714285714286, 25.3], [88.65714285714286, 25.02857142857143]]]}}, {"type": "Feature", "properties": {"id": 194, "name": "Constituency 194"}, "geometry": {"type": "Polygon", "coordinates": [[[88.94285714285714, 25.02857142857143], [89.22857142857143, 25.02857142857143], [89.22857142857143, 25.3], [88.94285714285714, 25.3], [88.94285714285714, 25.02857142857143]]]}}, {"type": "Feature", "properties": {"id": 195, "name": "Constituency 195"}, "geometry": {"type": "Polygon", "coordinates": [[[89.22857142857143, 25.02857142857143], [89.51428571428572, 25.02857142857143], [89.51428571428572, 25.3], [89.22857142857143, 25.3], [89.22857142857143, 25.02857142857143]]]}}, {"type": "Feature", "properties": {"id": 196, "name": "Constituency 196"}, "geometry": {"type": "Polygon", "coordinates": [[[89.5142857142857, 25.02857142857143], [89.8, 25.02857142857143], [89.8, 25.3], [89.5142857142857, 25.3], [89.5142857142857, 25.02857142857143]]]}}, {"type": "Feature", "properties": {"id": 197, "name": "Constituency 197"}, "geometry": {"type": "Polygon", "coordinates": [[[85.8, 25.3], [86.08571428571429, 25.3], [86.08571428571429, 25.571428571428573], [85.8, 25.571428571428573], [85.8, 25.3]]]}}, {"type": "Feature", "properties": {"id": 198, "name": "Constituency 198"}, "geometry": {"type": "Polygon", "coordinates": [[[86.08571428571429, 25.3], [86.37142857142858, 25.3], [86.37142857142858, 25.571428571428573], [86.08571428571429, 25.571428571428573], [86.08571428571429, 25.3]]]}}, {"type": "Feature", "properties": {"id": 199, "name": "Constituency 199"}, "geometry": {"type": "Polygon", "coordinates": [[[86.37142857142857, 25.3], [86.65714285714286, 25.3], [86.65714285714286, 25.571428571428573], [86.37142857142857, 25.571428571428573], [86.37142857142857, 25.3]]]}}, {"type": "Feature", "properties": {"id": 200, "name": "Constituency 200"}, "geometry": {"type": "Polygon", "coordinates": [[[86.65714285714286, 25.3], [86.94285714285715, 25.3], [86.94285714285715, 25.571428571428573], [86.65714285714286, 25.571428571428573], [86.65714285714286, 25.3]]]}}, {"type": "Feature", "properties": {"id": 201, "name": "Constituency 201"}, "geometry": {"type": "Polygon", "coordinates": [[[86.94285714285714, 25.3], [87.22857142857143, 25.3], [87.22857142857143, 25.571428571428573], [86.94285714285714, 25.571428571428573], [86.94285714285714, 25.3]]]}}, {"type": "Feature", "properties": {"id": 202, "name": "Constituency 202"}, "geometry": {"type": "Polygon", "coordinates": [[[87.22857142857143, 25.3], [87.51428571428572, 25.3], [87.51428571428572, 25.571428571428573], [87.22857142857143, 25.571428571428573], [87.22857142857143, 25.3]]]}}, {"type": "Feature", "properties": {"id": 203, "name": "Constituency 203"}, "geometry": {"type": "Polygon", "coordinates": [[[87.5142857142857, 25.3], [87.8, 25.3], [87.8, 25.571428571428573], [87.5142857142857, 25.571428571428573], [87.5142857142857, 25.3]]]}}, {"type": "Feature", "properties": {"id": 204, "name": "Constituency 204"}, "geometry": {"type": "Polygon", "coordinates": [[[87.8, 25.3], [88.08571428571429, 25.3], [88.08571428571429, 25.571428571428573], [87.8, 25.571428571428573], [87.8, 25.3]]]}}, {"type": "Feature", "properties": {"id": 205, "name": "Constituency 205"}, "geometry": {"type": "Polygon", "coordinates": [[[88.08571428571429, 25.3], [88.37142857142858, 25.3], [88.37142857142858, 25.571428571428573], [88.08571428571429, 25.571428571428573], [88.08571428571429, 25.3]]]}}, {"type": "Feature", "properties": {"id": 206, "name": "Constituency 206"}, "geometry": {"type": "Polygon", "coordinates": [[[88.37142857142857, 25.3], [88.65714285714286, 25.3], [88.65714285714286, 25.571428571428573], [88.37142857142857, 25.571428571428573], [88.37142857142857, 25.3]]]}}, {"type": "Feature", "properties": {"id": 207, "name": "Constituency 207"}, "geometry": {"type": "Polygon", "coordinates": [[[88.65714285714286, 25.3], [88.94285714285715, 25.3], [88.94285714285715, 25.571428571428573], [88.65714285714286, 25.571428571428573], [88.65714285714286, 25.3]]]}}, {"type": "Feature", "properties": {"id": 208, "name": "Constituency 208"}, "geometry": {"type": "Polygon", "coordinates": [[[88.94285714285714, 25.3], [89.22857142857143, 25.3], [89.22857142857143, 25.571428571428573], [88.94285714285714, 25.571428571428573], [88.94285714285714, 25.3]]]}}, {"type": "Feature", "properties": {"id": 209, "name": "Constituency 209"}, "geometry": {"type": "Polygon", "coordinates": [[[89.22857142857143, 25.3], [89.51428571428572, 25.3], [89.51428571428572, 25.571428571428573], [89.22857142857143, 25.571428571428573], [89.22857142857143, 25.3]]]}}, {"type": "Feature", "properties": {"id": 210, "name": "Constituency 210"}, "geometry": {"type": "Polygon", "coordinates": [[[89.5142857142857, 25.3], [89.8, 25.3], [89.8, 25.571428571428573], [89.5142857142857, 25.571428571428573], [89.5142857142857, 25.3]]]}}, {"type": "Feature", "properties": {"id": 211, "name": "Constituency 211"}, "geometry": {"type": "Polygon", "coordinates": [[[85.8, 25.57142857142857], [86.08571428571429, 25.57142857142857], [86.08571428571429, 25.84285714285714], [85.8, 25.84285714285714], [85.8, 25.57142857142857]]]}}, {"type": "Feature", "properties": {"id": 212, "name": "Constituency 212"}, "geometry": {"type": "Polygon", "coordinates": [[[86.08571428571429, 25.57142857142857], [86.37142857142858, 25.57142857142857], [86.37142857142858, 25.84285714285714], [86.08571428571429, 25.84285714285714], [86.08571428571429, 25.57142857142857]]]}}, {"type": "Feature", "properties": {"id": 213, "name": "Constituency 213"}, "geometry": {"type": "Polygon", "coordinates": [[[86.37142857142857, 25.57142857142857], [86.65714285714286, 25.57142857142857], [86.65714285714286, 25.84285714285714], [86.37142857142857, 25.84285714285714], [86.37142857142857, 25.57142857142857]]]}}, {"type": "Feature", "properties": {"id": 214, "name": "Constituency 214"}, "geometry": {"type": "Polygon", "coordinates": [[[86.65714285714286, 25.57142857142857], [86.94285714285715, 25.57142857142857], [86.94285714285715, 25.84285714285714], [86.65714285714286, 25.84285714285714], [86.65714285714286, 25.57142857142857]]]}}, {"type": "Feature", "properties": {"id": 215, "name": "Constituency 215"}, "geometry": {"type": "Polygon", "coordinates": [[[86.94285714285714, 25.57142857142857], [87.22857142857143, 25.57142857142857], [87.22857142857143, 25.84285714285714], [86.94285714285714, 25.84285714285714], [86.94285714285714, 25.57142857142857]]]}}, {"type": "Feature", "properties": {"id": 216, "name": "Constituency 216"}, "geometry": {"type": "Polygon", "coordinates": [[[87.22857142857143, 25.57142857142857], [87.51428571428572, 25.57142857142857], [87.51428571428572, 25.84285714285714], [87.22857142857143, 25.84285714285714], [87.22857142857143, 25.57142857142857]]]}}, {"type": "Feature", "properties": {"id": 217, "name": "Constituency 217"}, "geometry": {"type": "Polygon", "coordinates": [[[87.5142857142857, 25.57142857142857], [87.8, 25.57142857142857], [87.8, 25.84285714285714], [87.5142857142857, 25.84285714285714], [87.5142857142857, 25.57142857142857]]]}}, {"type": "Feature", "properties": {"id": 218, "name": "Constituency 218"}, "geometry": {"type": "Polygon", "coordinates": [[[87.8, 25.57142857142857], [88.08571428571429, 25.57142857142857], [88.08571428571429, 25.84285714285714], [87.8, 25.84285714285714], [87.8, 25.57142857142857]]]}}, {"type": "Feature", "properties": {"id": 219, "name": "Constituency 219"}, "geometry": {"type": "Polygon", "coordinates": [[[88.08571428571429, 25.57142857142857], [88.37142857142858, 25.57142857142857], [88.37142857142858, 25.84285714285714], [88.08571428571429, 25.84285714285714], [88.08571428571429, 25.57142857142857]]]}}, {"type": "Feature", "properties": {"id": 220, "name": "Constituency 220"}, "geometry": {"type": "Polygon", "coordinates": [[[88.37142857142857, 25.57142857142857], [88.65714285714286, 25.57142857142857], [88.65714285714286, 25.84285714285714], [88.37142857142857, 25.84285714285714], [88.37142857142857, 25.57142857142857]]]}}, {"type": "Feature", "properties": {"id": 221, "name": "Constituency 221"}, "geometry": {"type": "Polygon", "coordinates": [[[88.65714285714286, 25.57142857142857], [88.94285714285715, 25.57142857142857], [88.94285714285715, 25.84285714285714], [88.65714285714286, 25.84285714285714], [88.65714285714286, 25.57142857142857]]]}}, {"type": "Feature", "properties": {"id": 222, "name": "Constituency 222"}, "geometry": {"type": "Polygon", "coordinates": [[[88.94285714285714, 25.57142857142857], [89.22857142857143, 25.57142857142857], [89.22857142857143, 25.84285714285714], [88.94285714285714, 25.84285714285714], [88.94285714285714, 25.57142857142857]]]}}, {"type": "Feature", "properties": {"id": 223, "name": "Constituency 223"}, "geometry": {"type": "Polygon", "coordinates": [[[89.22857142857143, 25.57142857142857], [89.51428571428572, 25.57142857142857], [89.51428571428572, 25.84285714285714], [89.22857142857143, 25.84285714285714], [89.22857142857143, 25.57142857142857]]]}}, {"type": "Feature", "properties": {"id": 224, "name": "Constituency 224"}, "geometry": {"type": "Polygon", "coordinates": [[[89.5142857142857, 25.57142857142857], [89.8, 25.57142857142857], [89.8, 25.84285714285714], [89.5142857142857, 25.84285714285714], [89.5142857142857, 25.57142857142857]]]}}, {"type": "Feature", "properties": {"id": 225, "name": "Constituency 225"}, "geometry": {"type": "Polygon", "coordinates": [[[85.8, 25.84285714285714], [86.08571428571429, 25.84285714285714], [86.08571428571429, 26.114285714285714], [85.8, 26.114285714285714], [85.8, 25.84285714285714]]]}}, {"type": "Feature", "properties": {"id": 226, "name": "Constituency 226"}, "geometry": {"type": "Polygon", "coordinates": [[[86.08571428571429, 25.84285714285714], [86.37142857142858, 25.84285714285714], [86.37142857142858, 26.114285714285714], [86.08571428571429, 26.114285714285714], [86.08571428571429, 25.84285714285714]]]}}, {"type": "Feature", "properties": {"id": 227, "name": "Constituency 227"}, "geometry": {"type": "Polygon", "coordinates": [[[86.37142857142857, 25.84285714285714], [86.65714285714286, 25.84285714285714], [86.65714285714286, 26.114285714285714], [86.37142857142857, 26.114285714285714], [86.37142857142857, 25.84285714285714]]]}}, {"type": "Feature", "properties": {"id": 228, "name": "Constituency 228"}, "geometry": {"type": "Polygon", "coordinates": [[[86.65714285714286, 25.84285714285714], [86.94285714285715, 25.84285714285714], [86.94285714285715, 26.114285714285714], [86.65714285714286, 26.114285714285714], [86.65714285714286, 25.84285714285714]]]}}, {"type": "Feature", "properties": {"id": 229, "name": "Constituency 229"}, "geometry": {"type": "Polygon", "coordinates": [[[86.94285714285714, 25.84285714285714], [87.22857142857143, 25.84285714285714], [87.22857142857143, 26.114285714285714], [86.94285714285714, 26.114285714285714], [86.94285714285714, 25.84285714285714]]]}}, {"type": "Feature", "properties": {"id": 230, "name": "Constituency 230"}, "geometry": {"type": "Polygon", "coordinates": [[[87.22857142857143, 25.84285714285714], [87.51428571428572, 25.84285714285714], [87.51428571428572, 26.114285714285714], [87.22857142857143, 26.114285714285714], [87.22857142857143, 25.84285714285714]]]}}, {"type": "Feature", "properties": {"id": 231, "name": "Constituency 231"}, "geometry": {"type": "Polygon", "coordinates": [[[87.5142857142857, 25.84285714285714], [87.8, 25.84285714285714], [87.8, 26.114285714285714], [87.5142857142857, 26.114285714285714], [87.5142857142857, 25.84285714285714]]]}}, {"type": "Feature", "properties": {"id": 232, "name": "Constituency 232"}, "geometry": {"type": "Polygon", "coordinates": [[[87.8, 25.84285714285714], [88.08571428571429, 25.84285714285714], [88.08571428571429, 26.114285714285714], [87.8, 26.114285714285714], [87.8, 25.84285714285714]]]}}, {"type": "Feature", "properties": {"id": 233, "name": "Constituency 233"}, "geometry": {"type": "Polygon", "coordinates": [[[88.08571428571429, 25.84285714285714], [88.37142857142858, 25.84285714285714], [88.37142857142858, 26.114285714285714], [88.08571428571429, 26.114285714285714], [88.08571428571429, 25.84285714285714]]]}}, {"type": "Feature", "properties": {"id": 234, "name": "Constituency 234"}, "geometry": {"type": "Polygon", "coordinates": [[[88.37142857142857, 25.84285714285714], [88.65714285714286, 25.84285714285714], [88.65714285714286, 26.114285714285714], [88.37142857142857, 26.114285714285714], [88.37142857142857, 25.84285714285714]]]}}, {"type": "Feature", "properties": {"id": 235, "name": "Constituency 235"}, "geometry": {"type": "Polygon", "coordinates": [[[88.65714285714286, 25.84285714285714], [88.94285714285715, 25.84285714285714], [88.94285714285715, 26.114285714285714], [88.65714285714286, 26.114285714285714], [88.65714285714286, 25.84285714285714]]]}}, {"type": "Feature", "properties": {"id": 236, "name": "Constituency 236"}, "geometry": {"type": "Polygon", "coordinates": [[[88.94285714285714, 25.84285714285714], [89.22857142857143, 25.84285714285714], [89.22857142857143, 26.114285714285714], [88.94285714285714, 26.114285714285714], [88.94285714285714, 25.84285714285714]]]}}, {"type": "Feature", "properties": {"id": 237, "name": "Constituency 237"}, "geometry": {"type": "Polygon", "coordinates": [[[89.22857142857143, 25.84285714285714], [89.51428571428572, 25.84285714285714], [89.51428571428572, 26.114285714285714], [89.22857142857143, 26.114285714285714], [89.22857142857143, 25.84285714285714]]]}}, {"type": "Feature", "properties": {"id": 238, "name": "Constituency 238"}, "geometry": {"type": "Polygon", "coordinates": [[[89.5142857142857, 25.84285714285714], [89.8, 25.84285714285714], [89.8, 26.114285714285714], [89.5142857142857, 26.114285714285714], [89.5142857142857, 25.84285714285714]]]}}, {"type": "Feature", "properties": {"id": 239, "name": "Constituency 239"}, "geometry": {"type": "Polygon", "coordinates": [[[85.8, 26.114285714285714], [86.08571428571429, 26.114285714285714], [86.08571428571429, 26.385714285714286], [85.8, 26.385714285714286], [85.8, 26.114285714285714]]]}}, {"type": "Feature", "properties": {"id": 240, "name": "Constituency 240"}, "geometry": {"type": "Polygon", "coordinates": [[[86.08571428571429, 26.114285714285714], [86.37142857142858, 26.114285714285714], [86.37142857142858, 26.385714285714286], [86.08571428571429, 26.385714285714286], [86.08571428571429, 26.114285714285714]]]}}, {"type": "Feature", "properties": {"id": 241, "name": "Constituency 241"}, "geometry": {"type": "Polygon", "coordinates": [[[86.37142857142857, 26.114285714285714], [86.65714285714286, 26.114285714285714], [86.65714285714286, 26.385714285714286], [86.37142857142857, 26.385714285714286], [86.37142857142857, 26.114285714285714]]]}}, {"type": "Feature", "properties": {"id": 242, "name": "Constituency 242"}, "geometry": {"type": "Polygon", "coordinates": [[[86.65714285714286, 26.114285714285714], [86.94285714285715, 26.114285714285714], [86.94285714285715, 26.385714285714286], [86.65714285714286, 26.385714285714286], [86.65714285714286, 26.114285714285714]]]}}, {"type": "Feature", "properties": {"id": 243, "name": "Constituency 243"}, "geometry": {"type": "Polygon", "coordinates": [[[86.94285714285714, 26.114285714285714], [87.22857142857143, 26.114285714285714], [87.22857142857143, 26.385714285714286], [86.94285714285714, 26.385714285714286], [86.94285714285714, 26.114285714285714]]]}}, {"type": "Feature", "properties": {"id": 244, "name": "Constituency 244"}, "geometry": {"type": "Polygon", "coordinates": [[[87.22857142857143, 26.114285714285714], [87.51428571428572, 26.114285714285714], [87.51428571428572, 26.385714285714286], [87.22857142857143, 26.385714285714286], [87.22857142857143, 26.114285714285714]]]}}, {"type": "Feature", "properties": {"id": 245, "name": "Constituency 245"}, "geometry": {"type": "Polygon", "coordinates": [[[87.5142857142857, 26.114285714285714], [87.8, 26.114285714285714], [87.8, 26.385714285714286], [87.5142857142857, 26.385714285714286], [87.5142857142857, 26.114285714285714]]]}}, {"type": "Feature", "properties": {"id": 246, "name": "Constituency 246"}, "geometry": {"type": "Polygon", "coordinates": [[[87.8, 26.114285714285714], [88.08571428571429, 26.114285714285714], [88.08571428571429, 26.385714285714286], [87.8, 26.385714285714286], [87.8, 26.114285714285714]]]}}, {"type": "Feature", "properties": {"id": 247, "name": "Constituency 247"}, "geometry": {"type": "Polygon", "coordinates": [[[88.08571428571429, 26.114285714285714], [88.37142857142858, 26.114285714285714], [88.37142857142858, 26.385714285714286], [88.08571428571429, 26.385714285714286], [88.08571428571429, 26.114285714285714]]]}}, {"type": "Feature", "properties": {"id": 248, "name": "Constituency 248"}, "geometry": {"type": "Polygon", "coordinates": [[[88.37142857142857, 26.114285714285714], [88.65714285714286, 26.114285714285714], [88.65714285714286, 26.385714285714286], [88.37142857142857, 26.385714285714286], [88.37142857142857, 26.114285714285714]]]}}, {"type": "Feature", "properties": {"id": 249, "name": "Constituency 249"}, "geometry": {"type": "Polygon", "coordinates": [[[88.65714285714286, 26.114285714285714], [88.94285714285715, 26.114285714285714], [88.94285714285715, 26.385714285714286], [88.65714285714286, 26.385714285714286], [88.65714285714286, 26.114285714285714]]]}}, {"type": "Feature", "properties": {"id": 250, "name": "Constituency 250"}, "geometry": {"type": "Polygon", "coordinates": [[[88.94285714285714, 26.114285714285714], [89.22857142857143, 26.114285714285714], [89.22857142857143, 26.385714285714286], [88.94285714285714, 26.385714285714286], [88.94285714285714, 26.114285714285714]]]}}, {"type": "Feature", "properties": {"id": 251, "name": "Constituency 251"}, "geometry": {"type": "Polygon", "coordinates": [[[89.22857142857143, 26.114285714285714], [89.51428571428572, 26.114285714285714], [89.51428571428572, 26.385714285714286], [89.22857142857143, 26.385714285714286], [89.22857142857143, 26.114285714285714]]]}}, {"type": "Feature", "properties": {"id": 252, "name": "Constituency 252"}, "geometry": {"type": "Polygon", "coordinates": [[[89.5142857142857, 26.114285714285714], [89.8, 26.114285714285714], [89.8, 26.385714285714286], [89.5142857142857, 26.385714285714286], [89.5142857142857, 26.114285714285714]]]}}, {"type": "Feature", "properties": {"id": 253, "name": "Constituency 253"}, "geometry": {"type": "Polygon", "coordinates": [[[85.8, 26.385714285714286], [86.08571428571429, 26.385714285714286], [86.08571428571429, 26.65714285714286], [85.8, 26.65714285714286], [85.8, 26.385714285714286]]]}}, {"type": "Feature", "properties": {"id": 254, "name": "Constituency 254"}, "geometry": {"type": "Polygon", "coordinates": [[[86.08571428571429, 26.385714285714286], [86.37142857142858, 26.385714285714286], [86.37142857142858, 26.65714285714286], [86.08571428571429, 26.65714285714286], [86.08571428571429, 26.385714285714286]]]}}, {"type": "Feature", "properties": {"id": 255, "name": "Constituency 255"}, "geometry": {"type": "Polygon", "coordinates": [[[86.37142857142857, 26.385714285714286], [86.65714285714286, 26.385714285714286], [86.65714285714286, 26.65714285714286], [86.37142857142857, 26.65714285714286], [86.37142857142857, 26.385714285714286]]]}}, {"type": "Feature", "properties": {"id": 256, "name": "Constituency 256"}, "geometry": {"type": "Polygon", "coordinates": [[[86.65714285714286, 26.385714285714286], [86.94285714285715, 26.385714285714286], [86.94285714285715, 26.65714285714286], [86.65714285714286, 26.65714285714286], [86.65714285714286, 26.385714285714286]]]}}, {"type": "Feature", "properties": {"id": 257, "name": "Constituency 257"}, "geometry": {"type": "Polygon", "coordinates": [[[86.94285714285714, 26.385714285714286], [87.22857142857143, 26.385714285714286], [87.22857142857143, 26.65714285714286], [86.94285714285714, 26.65714285714286], [86.94285714285714, 26.385714285714286]]]}}, {"type": "Feature", "properties": {"id": 258, "name": "Constituency 258"}, "geometry": {"type": "Polygon", "coordinates": [[[87.22857142857143, 26.385714285714286], [87.51428571428572, 26.385714285714286], [87.51428571428572, 26.65714285714286], [87.22857142857143, 26.65714285714286], [87.22857142857143, 26.385714285714286]]]}}, {"type": "Feature", "properties": {"id": 259, "name": "Constituency 259"}, "geometry": {"type": "Polygon", "coordinates": [[[87.5142857142857, 26.385714285714286], [87.8, 26.385714285714286], [87.8, 26.65714285714286], [87.5142857142857, 26.65714285714286], [87.5142857142857, 26.385714285714286]]]}}, {"type": "Feature", "properties": {"id": 260, "name": "Constituency 260"}, "geometry": {"type": "Polygon", "coordinates": [[[87.8, 26.385714285714286], [88.08571428571429, 26.385714285714286], [88.08571428571429, 26.65714285714286], [87.8, 26.65714285714286], [87.8, 26.385714285714286]]]}}, {"type": "Feature", "properties": {"id": 261, "name": "Constituency 261"}, "geometry": {"type": "Polygon", "coordinates": [[[88.08571428571429, 26.385714285714286], [88.37142857142858, 26.385714285714286], [88.37142857142858, 26.65714285714286], [88.08571428571429, 26.65714285714286], [88.08571428571429, 26.385714285714286]]]}}, {"type": "Feature", "properties": {"id": 262, "name": "Constituency 262"}, "geometry": {"type": "Polygon", "coordinates": [[[88.37142857142857, 26.385714285714286], [88.65714285714286, 26.385714285714286], [88.65714285714286, 26.65714285714286], [88.37142857142857, 26.65714285714286], [88.37142857142857, 26.385714285714286]]]}}, {"type": "Feature", "properties": {"id": 263, "name": "Constituency 263"}, "geometry": {"type": "Polygon", "coordinates": [[[88.65714285714286, 26.385714285714286], [88.94285714285715, 26.385714285714286], [88.94285714285715, 26.65714285714286], [88.65714285714286, 26.65714285714286], [88.65714285714286, 26.385714285714286]]]}}, {"type": "Feature", "properties": {"id": 264, "name": "Constituency 264"}, "geometry": {"type": "Polygon", "coordinates": [[[88.94285714285714, 26.385714285714286], [89.22857142857143, 26.385714285714286], [89.22857142857143, 26.65714285714286], [88.94285714285714, 26.65714285714286], [88.94285714285714, 26.385714285714286]]]}}, {"type": "Feature", "properties": {"id": 265, "name": "Constituency 265"}, "geometry": {"type": "Polygon", "coordinates": [[[89.22857142857143, 26.385714285714286], [89.51428571428572, 26.385714285714286], [89.51428571428572, 26.65714285714286], [89.22857142857143, 26.65714285714286], [89.22857142857143, 26.385714285714286]]]}}, {"type": "Feature", "properties": {"id": 266, "name": "Constituency 266"}, "geometry": {"type": "Polygon", "coordinates": [[[89.5142857142857, 26.385714285714286], [89.8, 26.385714285714286], [89.8, 26.65714285714286], [89.5142857142857, 26.65714285714286], [89.5142857142857, 26.385714285714286]]]}}, {"type": "Feature", "properties": {"id": 267, "name": "Constituency 267"}, "geometry": {"type": "Polygon", "coordinates": [[[85.8, 26.65714285714286], [86.08571428571429, 26.65714285714286], [86.08571428571429, 26.92857142857143], [85.8, 26.92857142857143], [85.8, 26.65714285714286]]]}}, {"type": "Feature", "properties": {"id": 268, "name": "Constituency 268"}, "geometry": {"type": "Polygon", "coordinates": [[[86.08571428571429, 26.65714285714286], [86.37142857142858, 26.65714285714286], [86.37142857142858, 26.92857142857143], [86.08571428571429, 26.92857142857143], [86.08571428571429, 26.65714285714286]]]}}, {"type": "Feature", "properties": {"id": 269, "name": "Constituency 269"}, "geometry": {"type": "Polygon", "coordinates": [[[86.37142857142857, 26.65714285714286], [86.65714285714286, 26.65714285714286], [86.65714285714286, 26.92857142857143], [86.37142857142857, 26.92857142857143], [86.37142857142857, 26.65714285714286]]]}}, {"type": "Feature", "properties": {"id": 270, "name": "Constituency 270"}, "geometry": {"type": "Polygon", "coordinates": [[[86.65714285714286, 26.65714285714286], [86.94285714285715, 26.65714285714286], [86.94285714285715, 26.92857142857143], [86.65714285714286, 26.92857142857143], [86.65714285714286, 26.65714285714286]]]}}, {"type": "Feature", "properties": {"id": 271, "name": "Constituency 271"}, "geometry": {"type": "Polygon", "coordinates": [[[86.94285714285714, 26.65714285714286], [87.22857142857143, 26.65714285714286], [87.22857142857143, 26.92857142857143], [86.94285714285714, 26.92857142857143], [86.94285714285714, 26.65714285714286]]]}}, {"type": "Feature", "properties": {"id": 272, "name": "Constituency 272"}, "geometry": {"type": "Polygon", "coordinates": [[[87.22857142857143, 26.65714285714286], [87.51428571428572, 26.65714285714286], [87.51428571428572, 26.92857142857143], [87.22857142857143, 26.92857142857143], [87.22857142857143, 26.65714285714286]]]}}, {"type": "Feature", "properties": {"id": 273, "name": "Constituency 273"}, "geometry": {"type": "Polygon", "coordinates": [[[87.5142857142857, 26.65714285714286], [87.8, 26.65714285714286], [87.8, 26.92857142857143], [87.5142857142857, 26.92857142857143], [87.5142857142857, 26.65714285714286]]]}}, {"type": "Feature", "properties": {"id": 274, "name": "Constituency 274"}, "geometry": {"type": "Polygon", "coordinates": [[[87.8, 26.65714285714286], [88.08571428571429, 26.65714285714286], [88.08571428571429, 26.92857142857143], [87.8, 26.92857142857143], [87.8, 26.65714285714286]]]}}, {"type": "Feature", "properties": {"id": 275, "name": "Constituency 275"}, "geometry": {"type": "Polygon", "coordinates": [[[88.08571428571429, 26.65714285714286], [88.37142857142858, 26.65714285714286], [88.37142857142858, 26.92857142857143], [88.08571428571429, 26.92857142857143], [88.08571428571429, 26.65714285714286]]]}}, {"type": "Feature", "properties": {"id": 276, "name": "Constituency 276"}, "geometry": {"type": "Polygon", "coordinates": [[[88.37142857142857, 26.65714285714286], [88.65714285714286, 26.65714285714286], [88.65714285714286, 26.92857142857143], [88.37142857142857, 26.92857142857143], [88.37142857142857, 26.65714285714286]]]}}, {"type": "Feature", "properties": {"id": 277, "name": "Constituency 277"}, "geometry": {"type": "Polygon", "coordinates": [[[88.65714285714286, 26.65714285714286], [88.94285714285715, 26.65714285714286], [88.94285714285715, 26.92857142857143], [88.65714285714286, 26.92857142857143], [88.65714285714286, 26.65714285714286]]]}}, {"type": "Feature", "properties": {"id": 278, "name": "Constituency 278"}, "geometry": {"type": "Polygon", "coordinates": [[[88.94285714285714, 26.65714285714286], [89.22857142857143, 26.65714285714286], [89.22857142857143, 26.92857142857143], [88.94285714285714, 26.92857142857143], [88.94285714285714, 26.65714285714286]]]}}, {"type": "Feature", "properties": {"id": 279, "name": "Constituency 279"}, "geometry": {"type": "Polygon", "coordinates": [[[89.22857142857143, 26.65714285714286], [89.51428571428572, 26.65714285714286], [89.51428571428572, 26.92857142857143], [89.22857142857143, 26.92857142857143], [89.22857142857143, 26.65714285714286]]]}}, {"type": "Feature", "properties": {"id": 280, "name": "Constituency 280"}, "geometry": {"type": "Polygon", "coordinates": [[[89.5142857142857, 26.65714285714286], [89.8, 26.65714285714286], [89.8, 26.92857142857143], [89.5142857142857, 26.92857142857143], [89.5142857142857, 26.65714285714286]]]}}, {"type": "Feature", "properties": {"id": 281, "name": "Constituency 281"}, "geometry": {"type": "Polygon", "coordinates": [[[85.8, 26.928571428571427], [86.08571428571429, 26.928571428571427], [86.08571428571429, 27.2], [85.8, 27.2], [85.8, 26.928571428571427]]]}}, {"type": "Feature", "properties": {"id": 282, "name": "Constituency 282"}, "geometry": {"type": "Polygon", "coordinates": [[[86.08571428571429, 26.928571428571427], [86.37142857142858, 26.928571428571427], [86.37142857142858, 27.2], [86.08571428571429, 27.2], [86.08571428571429, 26.928571428571427]]]}}, {"type": "Feature", "properties": {"id": 283, "name": "Constituency 283"}, "geometry": {"type": "Polygon", "coordinates": [[[86.37142857142857, 26.928571428571427], [86.65714285714286, 26.928571428571427], [86.65714285714286, 27.2], [86.37142857142857, 27.2], [86.37142857142857, 26.928571428571427]]]}}, {"type": "Feature", "properties": {"id": 284, "name": "Constituency 284"}, "geometry": {"type": "Polygon", "coordinates": [[[86.65714285714286, 26.928571428571427], [86.94285714285715, 26.928571428571427], [86.94285714285715, 27.2], [86.65714285714286, 27.2], [86.65714285714286, 26.928571428571427]]]}}, {"type": "Feature", "properties": {"id": 285, "name": "Constituency 285"}, "geometry": {"type": "Polygon", "coordinates": [[[86.94285714285714, 26.928571428571427], [87.22857142857143, 26.928571428571427], [87.22857142857143, 27.2], [86.94285714285714, 27.2], [86.94285714285714, 26.928571428571427]]]}}, {"type": "Feature", "properties": {"id": 286, "name": "Constituency 286"}, "geometry": {"type": "Polygon", "coordinates": [[[87.22857142857143, 26.928571428571427], [87.51428571428572, 26.928571428571427], [87.51428571428572, 27.2], [87.22857142857143, 27.2], [87.22857142857143, 26.928571428571427]]]}}, {"type": "Feature", "properties": {"id": 287, "name": "Constituency 287"}, "geometry": {"type": "Polygon", "coordinates": [[[87.5142857142857, 26.928571428571427], [87.8, 26.928571428571427], [87.8, 27.2], [87.5142857142857, 27.2], [87.5142857142857, 26.928571428571427]]]}}, {"type": "Feature", "properties": {"id": 288, "name": "Constituency 288"}, "geometry": {"type": "Polygon", "coordinates": [[[87.8, 26.928571428571427], [88.08571428571429, 26.928571428571427], [88.08571428571429, 27.2], [87.8, 27.2], [87.8, 26.928571428571427]]]}}, {"type": "Feature", "properties": {"id": 289, "name": "Constituency 289"}, "geometry": {"type": "Polygon", "coordinates": [[[88.08571428571429, 26.928571428571427], [88.37142857142858, 26.928571428571427], [88.37142857142858, 27.2], [88.08571428571429, 27.2], [88.08571428571429, 26.928571428571427]]]}}, {"type": "Feature", "properties": {"id": 290, "name": "Constituency 290"}, "geometry": {"type": "Polygon", "coordinates": [[[88.37142857142857, 26.928571428571427], [88.65714285714286, 26.928571428571427], [88.65714285714286, 27.2], [88.37142857142857, 27.2], [88.37142857142857, 26.928571428571427]]]}}, {"type": "Feature", "properties": {"id": 291, "name": "Constituency 291"}, "geometry": {"type": "Polygon", "coordinates": [[[88.65714285714286, 26.928571428571427], [88.94285714285715, 26.928571428571427], [88.94285714285715, 27.2], [88.65714285714286, 27.2], [88.65714285714286, 26.928571428571427]]]}}, {"type": "Feature", "properties": {"id": 292, "name": "Constituency 292"}, "geometry": {"type": "Polygon", "coordinates": [[[88.94285714285714, 26.928571428571427], [89.22857142857143, 26.928571428571427], [89.22857142857143, 27.2], [88.94285714285714, 27.2], [88.94285714285714, 26.928571428571427]]]}}, {"type": "Feature", "properties": {"id": 293, "name": "Constituency 293"}, "geometry": {"type": "Polygon", "coordinates": [[[89.22857142857143, 26.928571428571427], [89.51428571428572, 26.928571428571427], [89.51428571428572, 27.2], [89.22857142857143, 27.2], [89.22857142857143, 26.928571428571427]]]}}, {"type": "Feature", "properties": {"id": 294, "name": "Constituency 294"}, "geometry": {"type": "Polygon", "coordinates": [[[89.5142857142857, 26.928571428571427], [89.8, 26.928571428571427], [89.8, 27.2], [89.5142857142857, 27.2], [89.5142857142857, 26.928571428571427]]]}}]}